,name,cat_in,street,business_city,address_locality,address_region,telephone
0,Weisbord Jeffrey Real Estate Broker,"Real Estate Brokers in Upper West Side, New York",498 W End Ave,"Upper West Side
New York,
            NY",New York,NY,(212) 496-6042
1,Alan Tam Real Estate Broker,"Real Estate Buyer Brokers in Lower East Side, New York",37 Orchard St,"Lower East Side
New York,
            NY",New York,NY,(212) 966-9858
2,Sandy Beck Lic Real Estate Broker,"Real Estate Consultants & Research Services in Midtown, New York",420 Madison Ave Rm 1106,"Midtown
New York,
            NY",New York,NY,(212) 925-0205
3,MORRISON LEROY W REAL ESTATE BROKER,"Real Estate Agents and Managers in Harlem, New York",167 W 145Th St Frnt 2,"Harlem
New York,
            NY",New York,NY,(212) 368-0600
4,Milton Gumowitz Mortgage Broker,"Real Estate Agents and Managers in Garment District, New York",421 7th Ave,"Garment District
New York,
            NY",New York,NY,(212) 564-7250
5,WIERBOWSKI REGINA A LICENSED RL EST BROKER,"Offices of Real Estate Agents and Brokers in Tribeca, New York",261 Broadway,"Tribeca
New York,
            NY",New York,NY,(212) 608-3240
6,Continental Broker,"Aa (Alcoholics Anonymous) in Midtown, New York",230 Park Ave,"Midtown
New York,
            NY",New York,NY,(646) 205-5800
7,Jose Broker,"Aa (Alcoholics Anonymous) in Hamilton Heights, New York",3592 Broadway,"Hamilton Heights
New York,
            NY",New York,NY,(212) 283-1721
8,Broker Heaven NY Inc,"Real Estate Consultants & Research Services in New York, NY",333 Park Ave S Apt 5B,"New York,
            NY",New York,NY,(646) 476-2741
9,Car Lease Broker NY,"Passenger Car Leasing in New York, NY",312 5th Avenue,"New York,
            NY",New York,NY,(347) 619-0080
10,Continental Broker -Dealer Corp,"Stock & Bond Brokers & Dealers in Midtown, New York",230 Park Ave,"Midtown
New York,
            NY",New York,NY,(646) 227-0761
11,Hello Ticket Broker,"Theater & Sport Ticket Agencies in Chelsea, New York",151 W 25th St Rm 1200,"Chelsea
New York,
            NY",New York,NY,(212) 691-1771
12,Car Lease Broker,"Adult Care Services in Upper West Side, New York",251 W 70th St,"Upper West Side
New York,
            NY",New York,NY,(646) 386-2340
13,Car Broker New York,"Auto & Truck Brokers in Lower East Side, New York",55 Columbia Street,"Lower East Side
New York,
            NY",New York,NY,(347) 821-4650
14,Manhattan Pawn Broker,"Insurance Carriers in Hamilton Heights, New York",3570 Broadway,"Hamilton Heights
New York,
            NY",New York,NY,(212) 368-1338
15,Turn Key Broker,"Computer Software Service in Lower East Side, New York",301 Grand St,"Lower East Side
New York,
            NY",New York,NY,(646) 626-6277
16,Car Broker New York,"Passenger Car Leasing in New York, NY",55 Columbia Street,"New York,
            NY",New York,NY,(347) 821-4650
17,Buechler Paul J Broker,"Business Management Consultants in Midtown, New York",10 E 59th St,"Midtown
New York,
            NY",New York,NY,(212) 751-4500
18,Lamb Lawton S Broker,"Professional Services in Financial District, New York",57 Broadway,"Financial District
New York,
            NY",New York,NY,(212) 269-7763
19,Gramercy Pawn Broker Inc,"Insurance Carriers in New York, NY",318 3Rd Ave,"New York,
            NY",New York,NY,(212) 473-6170
20,J Broker Global,"Financial Services in Financial District, New York",41 Broadway,"Financial District
New York,
            NY",New York,NY,(212) 771-1010
21,Transit Broker llc,"Bus Line Ticket Agencies in Gramercy, New York",153 E 32nd St Apt 11d,"Gramercy
New York,
            NY",New York,NY,(212) 420-1222
22,Domain Name Broker llc,"Stock & Bond Brokers & Dealers in Murray Hill, New York",100 Park Ave,"Murray Hill
New York,
            NY",New York,NY,(212) 880-6479
23,Car Lease Broker NY,"Automobile Rental & Leasing in Garment District, New York",312 5th Avenue,"Garment District
New York,
            NY",New York,NY,(347) 619-0080
24,Birdoff Charles & CO,"Offices of Real Estate Agents and Brokers in Upper East Side, New York",512 e 81st St Apt 1w,"Upper East Side
New York,
            NY",New York,NY,(212) 628-2600
25,Harlem Congregations for Community Improvement Inc,"Offices of Real Estate Agents and Brokers in Harlem, New York",2854 Frederick Douglass Blvd,"Harlem
New York,
            NY",New York,NY,(212) 283-1377
26,State of New York,"Offices of Real Estate Agents and Brokers in Harlem, New York",159 E 125Th St,"Harlem
New York,
            NY",New York,NY,(212) 416-8123
27,City of New York - Dept of Finance,"Offices of Real Estate Agents and Brokers in Chelsea, New York",209 Joralemon St,"Chelsea
New York,
            NY",New York,NY,(212) 504-4080
28,City of New York - Dept of Citywide Administrative Services,"Offices of Real Estate Agents and Brokers in Lower East Side, New York",1 Centre St Rm 2208,"Lower East Side
New York,
            NY",New York,NY,(212) 669-4241
29,Port Authority of New York & New Jersey,"Offices of Real Estate Agents and Brokers in Murray Hill, New York",8 Avenue At 41 St,"Murray Hill
New York,
            NY",New York,NY,(212) 435-8881
30,City of New York - Dept of Finance,"Offices of Real Estate Agents and Brokers in Chelsea, New York",209 Joralemon St,"Chelsea
New York,
            NY",New York,NY,(212) 504-4039
31,Port Authority of New York & New Jersey,"Offices of Real Estate Agents and Brokers in Chelsea, New York",8 Avenue At 41,"Chelsea
New York,
            NY",New York,NY,(212) 435-8881
32,State of New York,"Offices of Real Estate Agents and Brokers in Murray Hill, New York",633 3Rd Ave Frnt 2,"Murray Hill
New York,
            NY",New York,NY,(212) 681-4482
33,New York University,"Offices of Real Estate Agents and Brokers in Garment District, New York",11 W 42nd St Fl 4,"Garment District
New York,
            NY",New York,NY,(212) 790-1300
34,Port Authority of New York & New Jersey,"Offices of Real Estate Agents and Brokers in New York, NY",8 Avenue At 41 St,"New York,
            NY",New York,NY,(212) 435-8347
35,State of New York,"Offices of Real Estate Agents and Brokers in Chelsea, New York",Broadway,"Chelsea
New York,
            NY",New York,NY,(212) 416-8123
36,Port Authority of New York & New Jersey,"Offices of Real Estate Agents and Brokers in Chelsea, New York",8 Avenue At 41,"Chelsea
New York,
            NY",New York,NY,(212) 435-8347
37,State of New York,"Offices of Real Estate Agents and Brokers in Murray Hill, New York",633 3Rd Ave Frnt 2,"Murray Hill
New York,
            NY",New York,NY,(212) 681-4482
38,Port Authority of New York & New Jersey,"Offices of Real Estate Agents and Brokers in Chelsea, New York",1 Path Plaza Jersey City NJ,"Chelsea
New York,
            NY",New York,NY,(212) 435-8347
39,City of New York,"Offices of Real Estate Agents and Brokers in Tribeca, New York",31 Chambers St,"Tribeca
New York,
            NY",New York,NY,(212) 802-5490
40,City of New York - Dept of Finance,"Offices of Real Estate Agents and Brokers in Chelsea, New York",209 Joralemon St,"Chelsea
New York,
            NY",New York,NY,(212) 504-4080
41,City of New York,"Offices of Real Estate Agents and Brokers in Lower East Side, New York",1 Centre St Rm 2208,"Lower East Side
New York,
            NY",New York,NY,(212) 669-8888
42,City of New York,"Offices of Real Estate Agents and Brokers in Lower East Side, New York",1 Centre St,"Lower East Side
New York,
            NY",New York,NY,(212) 669-7232
43,City of New York,"Offices of Real Estate Agents and Brokers in Lower East Side, New York",1 Centre St,"Lower East Side
New York,
            NY",New York,NY,(212) 669-4233
44,City of New York,"Offices of Real Estate Agents and Brokers in Lower East Side, New York",1 Centre St,"Lower East Side
New York,
            NY",New York,NY,(212) 669-7232
45,City of New York,"Offices of Real Estate Agents and Brokers in Lower East Side, New York",1 Centre St,"Lower East Side
New York,
            NY",New York,NY,(212) 669-8888
46,City of New York,"Offices of Real Estate Agents and Brokers in Lower East Side, New York",1 Centre St,"Lower East Side
New York,
            NY",New York,NY,(212) 669-4233
47,City of New York,"Offices of Real Estate Agents and Brokers in Lower East Side, New York",1 Centre St Rm 2208,"Lower East Side
New York,
            NY",New York,NY,(212) 669-4233
48,City of New York,"Offices of Real Estate Agents and Brokers in Lower East Side, New York",1 Centre St,"Lower East Side
New York,
            NY",New York,NY,(212) 669-8888
49,City of New York,"Offices of Real Estate Agents and Brokers in Lower East Side, New York",1 Centre St Rm 2208,"Lower East Side
New York,
            NY",New York,NY,(212) 669-7232
50,Lentini Real Estate,"Offices of Real Estate Agents and Brokers in Murray Hill, New York",122 E 42nd St # 1700,"Murray Hill
New York,
            NY",New York,NY,(212) 472-1607
51,Ge Company,"Other Electrical Products in Midtown, New York",280 Park Ave Fl 8E,"Midtown
New York,
            NY",New York,NY,(212) 850-5800
52,Port Authority of New York & New Jersey,"Transportation Programs Ports Ships & Boats in Chelsea, New York",1 Path Plaza Jersey City NJ,"Chelsea
New York,
            NY",New York,NY,(212) 435-8881
53,City of New York,"City & County Government in Tribeca, New York",31 Chambers St,"Tribeca
New York,
            NY",New York,NY,(212) 669-7232
54,City of New York,"City & County Government in Tribeca, New York",31 Chambers St,"Tribeca
New York,
            NY",New York,NY,(212) 669-4241
55,Ge Company,"Other Electrical Products in Midtown, New York",280 Park Ave Fl 8E,"Midtown
New York,
            NY",New York,NY,(212) 850-5800
56,United States Government,"Federal Government in Soho, New York",201 Varick St,"Soho
New York,
            NY",New York,NY,(212) 264-9656
57,United States Government,"Federal Government in Soho, New York",201 Varick St,"Soho
New York,
            NY",New York,NY,(212) 264-4241
58,United States Government,"Federal Government in Soho, New York",201 Varick St,"Soho
New York,
            NY",New York,NY,(212) 264-4273
59,United States Government,"Federal Government in Soho, New York",201 Varick St,"Soho
New York,
            NY",New York,NY,(212) 264-4273
60,United States Government,"Federal Government in Soho, New York",201 Varick St,"Soho
New York,
            NY",New York,NY,(212) 264-4241
61,State of New York,"State Government in Tribeca, New York",75 Varick St,"Tribeca
New York,
            NY",New York,NY,(212) 416-8123
62,United States Government,"Federal Government in Lower East Side, New York",500 Pearl St,"Lower East Side
New York,
            NY",New York,NY,(212) 264-3544
63,United States Government,"Federal Government in Lower East Side, New York",500 Pearl St,"Lower East Side
New York,
            NY",New York,NY,(212) 264-3544
64,City of New York,"City & County Government in Tribeca, New York",31 Chambers St,"Tribeca
New York,
            NY",New York,NY,(212) 504-4039
65,City of New York - The City University of NY,"City & County Government in Chelsea, New York",209 Joralemon St,"Chelsea
New York,
            NY",New York,NY,(646) 660-6950
66,United States Government,"Federal Government in Soho, New York",201 Varick St,"Soho
New York,
            NY",New York,NY,(212) 264-4212
67,United States Government,"Federal Government in Lower East Side, New York",500 Pearl St,"Lower East Side
New York,
            NY",New York,NY,(212) 264-4241
68,City of New York,"City & County Government in Tribeca, New York",31 Chambers St,"Tribeca
New York,
            NY",New York,NY,(212) 504-4080
69,United States Government,"Federal Government in Soho, New York",201 Varick St,"Soho
New York,
            NY",New York,NY,(212) 264-3544
70,United States Government,"Federal Government in Soho, New York",201 Varick St,"Soho
New York,
            NY",New York,NY,(212) 264-4212
71,United States Government,"Federal Government in Lower East Side, New York",500 Pearl St,"Lower East Side
New York,
            NY",New York,NY,(212) 264-4241
72,United States Government,"Federal Government in Lower East Side, New York",500 Pearl St,"Lower East Side
New York,
            NY",New York,NY,(212) 264-9656
73,United States Government,"Federal Government in Soho, New York",201 Varick St,"Soho
New York,
            NY",New York,NY,(212) 264-9656
74,United States Government,"Federal Government in Soho, New York",201 Varick St,"Soho
New York,
            NY",New York,NY,(212) 264-3544
75,City of New York,"City & County Government in Tribeca, New York",31 Chambers St,"Tribeca
New York,
            NY",New York,NY,(212) 669-8888
76,United States Government,"Federal Government in Lower East Side, New York",500 Pearl St,"Lower East Side
New York,
            NY",New York,NY,(212) 264-9656
77,Mountbrook Usa llc,"Offices of Real Estate Agents and Brokers in Soho, New York",143 Grand St Apt 4,"Soho
New York,
            NY",New York,NY,(212) 334-3034
78,Sealand Realty Corp,"Offices of Real Estate Agents and Brokers in Chelsea, New York",17 W 20th St,"Chelsea
New York,
            NY",New York,NY,(212) 675-0807
79,Sage Realty Corp,"Offices of Real Estate Agents and Brokers in Midtown, New York",767 3Rd Ave Lbby 1,"Midtown
New York,
            NY",New York,NY,(212) 371-7767
80,West,"Offices of Real Estate Agents and Brokers in Garment District, New York",109 W 38th St,"Garment District
New York,
            NY",New York,NY,(212) 399-3514
81,Trump Tower,"Offices of Real Estate Agents and Brokers in Midtown, New York",725 5th Ave FL 20,"Midtown
New York,
            NY",New York,NY,(212) 308-8802
82,Tudor City Realty,"Offices of Real Estate Agents and Brokers in Tribeca, New York",303 Greenwich St,"Tribeca
New York,
            NY",New York,NY,(212) 842-0887
83,Glenwood Managment Corp,"Real Estate Types of Property Apartments & Residential in Upper East Side, New York",500 E 77 Bsmt,"Upper East Side
New York,
            NY",New York,NY,(212) 535-0500
84,Metropolitan Reality llc,"Offices of Real Estate Agents and Brokers in Harlem, New York",230 W 111th St,"Harlem
New York,
            NY",New York,NY,(212) 222-5281
85,Bradhurst Carriage House llc,"Offices of Real Estate Agents and Brokers in Hamilton Heights, New York",456 W 146th St,"Hamilton Heights
New York,
            NY",New York,NY,(212) 694-6110
86,Ibus Usa,"Offices of Real Estate Agents and Brokers in New York, NY",355 Lexington Ave FL 8,"New York,
            NY",New York,NY,(212) 682-1355
87,Ludlow Industrial Realties,"Offices of Real Estate Agents and Brokers in Murray Hill, New York",60 e 42nd St,"Murray Hill
New York,
            NY",New York,NY,(212) 697-2112
88,Crg Properties llc,"Offices of Real Estate Agents and Brokers in Midtown, New York",1330 Avenue of the Americas,"Midtown
New York,
            NY",New York,NY,(212) 582-6688
89,Citi Spaces,"Real Property Lessors, Nec in Upper East Side, New York",1343 2nd Ave,"Upper East Side
New York,
            NY",New York,NY,(212) 861-9400
90,F G h Investment Inc,"Offices of Real Estate Agents and Brokers in Midtown, New York",250 W 57th St Ste 1931,"Midtown
New York,
            NY",New York,NY,(212) 759-0400
91,Treuhaft & Zakarin,"Offices of Real Estate Agents and Brokers in Gramercy, New York",347 5th Ave,"Gramercy
New York,
            NY",New York,NY,(212) 725-6418
92,52 Riverside Dr Corp,"Offices of Real Estate Agents and Brokers in Upper West Side, New York",52 Riverside Dr,"Upper West Side
New York,
            NY",New York,NY,(212) 877-0361
93,Edison Properties LLC,"Offices of Real Estate Agents and Brokers in Clinton, New York",645 W 44th St,"Clinton
New York,
            NY",New York,NY,(212) 582-2615
94,ID Real Estate Partners LLC,"Offices of Real Estate Agents and Brokers in Garment District, New York",450 Fashion Ave Ste 2805,"Garment District
New York,
            NY",New York,NY,(212) 594-9440
95,Masom Property Management,"Offices of Real Estate Agents and Brokers in Financial District, New York",48 Wall St,"Financial District
New York,
            NY",New York,NY,(212) 509-1080
96,The Bentley,"Offices of Real Estate Agents and Brokers in Gramercy, New York",161 E 30Th St,"Gramercy
New York,
            NY",New York,NY,(212) 532-0373
97,Gotham Realty Holdings,"Real Estate Buyer Brokers in New York, NY",30 Broad St Ste 2502,"New York,
            NY",New York,NY,(212) 248-2217
98,SAFEGUARD REALTY MANAGEMENT INCORPORATED,"Offices of Real Estate Agents and Brokers in Financial District, New York",25 Broad St,"Financial District
New York,
            NY",New York,NY,(212) 217-9720
99,Mayflower Equities,"Real Estate Agents and Managers in Upper East Side, New York",245 e 87th St,"Upper East Side
New York,
            NY",New York,NY,(212) 427-1259
100,Worldwide Development Foundation Inc,"Offices of Real Estate Agents and Brokers in Chelsea, New York",264 10Th Ave,"Chelsea
New York,
            NY",New York,NY,(212) 645-1328
101,H Y H CORPORATION,"Offices of Real Estate Agents and Brokers in New York, NY",255 e 49th St,"New York,
            NY",New York,NY,(212) 593-1771
102,Ryan Ronald,"Offices of Real Estate Agents and Brokers in New York, NY",250 S End Ave,"New York,
            NY",New York,NY,(212) 945-3153
103,Independent Brokers Alliance LLC,"Offices of Real Estate Agents and Brokers in Greenwich Village, New York",112 4th Ave,"Greenwich Village
New York,
            NY",New York,NY,(212) 533-0100
104,Maloney Enterprises,"Offices of Real Estate Agents and Brokers in East Harlem, New York",229 E 120th St,"East Harlem
New York,
            NY",New York,NY,(212) 876-3847
105,Tranel Inc,"Offices of Real Estate Agents and Brokers in Chelsea, New York",236 W 27th St,"Chelsea
New York,
            NY",New York,NY,(212) 675-5610
106,Columbus Properties Inc,"Offices of Real Estate Agents and Brokers in Financial District, New York",217 Broadway Lbby A,"Financial District
New York,
            NY",New York,NY,(212) 267-2654
107,3 Hanover Square Owners Corp,"Offices of Real Estate Agents and Brokers in Financial District, New York",3 Hanover Sq,"Financial District
New York,
            NY",New York,NY,(212) 425-0093
108,Davis Daniel E & Co Inc,"Offices of Real Estate Agents and Brokers in Chelsea, New York",137 W 22Nd St,"Chelsea
New York,
            NY",New York,NY,(212) 645-2562
109,Balance Trading Corp,"Offices of Real Estate Agents and Brokers in Upper East Side, New York",12 E 80Th St,"Upper East Side
New York,
            NY",New York,NY,(212) 794-3210
110,Amie Cloutier,"Real Estate Agents and Managers in New York, NY",229 E 79Th St,"New York,
            NY",New York,NY,(212) 988-9519
111,Biju Realty,"Real Estate Consultants & Research Services in Upper West Side, New York",945 W End Ave,"Upper West Side
New York,
            NY",New York,NY,(212) 666-4034
112,Kevin Carberry Licensed Real Estate Broker,"Offices of Real Estate Agents and Brokers in Brooklyn, NY",39 Columbia Pl,"Brooklyn,
            NY",Brooklyn,NY,(718) 875-0033
113,Dorothy Raymond Morehead Real Estate Broker,"Offices of Real Estate Agents and Brokers in Sunnyside, NY",4518 Skillman Ave,"Sunnyside,
            NY",Sunnyside,NY,(718) 784-8220
114,Winin Pawn Broker Inc,"Offices of Real Estate Agents and Brokers in Mott Haven, Bronx",345 E 149th St,"Mott Haven
Bronx,
            NY",Bronx,NY,(718) 292-2788
115,Ines Garcia Insurance Broker,"Insurance Agents, Brokers, and Service in Astoria, NY",4212 30th Ave,"Astoria,
            NY",Astoria,NY,(718) 204-5629
116,Empire Pawn Broker Inc,"Pawn Shops in Bedford-Stuyvesant, Brooklyn",799 Broadway,"Bedford-Stuyvesant
Brooklyn,
            NY",Brooklyn,NY,(718) 302-1808
117,Commercial Mortgage Broker,"Mortgage Brokers in Brooklyn, NY",195 Montague Street,"Brooklyn,
            NY",Brooklyn,NY,(516) 241-8276
118,Albert Einstein-Jack D Weiler Hospital,"Offices of Real Estate Agents and Brokers in Tremont, Bronx",1055 E Tremont Ave,"Tremont
Bronx,
            NY",Bronx,NY,(718) 920-4355
119,City of New York,"City & County Government in Mott Haven, Bronx",500 Grand Concourse,"Mott Haven
Bronx,
            NY",Bronx,NY,(212) 504-4080
120,Rxr Hb Owner llc,"Offices of Real Estate Agents and Brokers in Midtown, New York",230 Park Ave,"Midtown
New York,
            NY",New York,NY,(212) 245-7023
121,Cgo 59th Street Owner,"Offices of Real Estate Agents and Brokers in Upper East Side, New York",5 E 59th St,"Upper East Side
New York,
            NY",New York,NY,(212) 758-4085
122,The Next Step Realty,"Offices of Real Estate Agents and Brokers in Upper East Side, New York",120 E 61st St,"Upper East Side
New York,
            NY",New York,NY,(646) 979-2300
123,Cha Realty llc,"Offices of Real Estate Agents and Brokers in Upper West Side, New York",101 W 75th St,"Upper West Side
New York,
            NY",New York,NY,(212) 595-3080
124,Data Regus,"Offices of Real Estate Agents and Brokers in Midtown, New York",245 Park Ave,"Midtown
New York,
            NY",New York,NY,(212) 370-9577
125,Time Equities Inc. (Tei),"Offices of Real Estate Agents and Brokers in Greenwich Village, New York",55 5 Avenue 12 St E,"Greenwich Village
New York,
            NY",New York,NY,(212) 675-4809
126,Clinton Housing W,"Offices of Real Estate Agents and Brokers in Midtown, New York",300 W 46th St,"Midtown
New York,
            NY",New York,NY,(212) 245-6683
127,780 Gw Realty llc,"Offices of Real Estate Agents and Brokers in West Village, New York",780 Greenwich St,"West Village
New York,
            NY",New York,NY,(212) 255-7062
128,Abs Partners Real Estate,"Offices of Real Estate Agents and Brokers in Chelsea, New York",,"Chelsea
New York,
            NY",New York,NY,(646) 476-4029
129,Abs Partners Real Estate,"Offices of Real Estate Agents and Brokers in Gramercy, New York",915 Broadway,"Gramercy
New York,
            NY",New York,NY,(917) 409-2406
130,S Blair Partners Ltd,"Offices of Real Estate Agents and Brokers in Garment District, New York",130 W 42nd St Ste 811,"Garment District
New York,
            NY",New York,NY,(212) 829-5650
131,Samuro Corp,"Offices of Real Estate Agents and Brokers in Upper East Side, New York",138 E 61st St Ste 204,"Upper East Side
New York,
            NY",New York,NY,(212) 838-0670
132,Adams & CO Rl Est Inc Ofc,"Offices of Real Estate Agents and Brokers in Murray Hill, New York",411 5th Ave,"Murray Hill
New York,
            NY",New York,NY,(212) 679-5500
133,Abington Holding,"Offices of Real Estate Agents and Brokers in Midtown, New York",950 3rd Ave Ste 2700,"Midtown
New York,
            NY",New York,NY,(212) 759-5000
134,Cape Advisors,"Offices of Real Estate Agents and Brokers in Soho, New York",483 Broadway,"Soho
New York,
            NY",New York,NY,(212) 226-1870
135,Silverstein Properties Inc,"Offices of Real Estate Agents and Brokers in Financial District, New York",120 Broadway Ste 3663,"Financial District
New York,
            NY",New York,NY,(212) 732-1207
136,2324 Realty llc,"Offices of Real Estate Agents and Brokers in Chelsea, New York",225 W 23rd St,"Chelsea
New York,
            NY",New York,NY,(212) 620-0867
137,Glenwood Management,"Offices of Real Estate Agents and Brokers in Upper East Side, New York",350 E 79th St,"Upper East Side
New York,
            NY",New York,NY,(212) 249-9670
138,2655 Realty llc,"Offices of Real Estate Agents and Brokers in Harlem, New York",2655 Frederick Douglass Blvd,"Harlem
New York,
            NY",New York,NY,(212) 234-9040
139,Yoon Suh Kim and So,"Offices of Real Estate Agents and Brokers in Midtown, New York",11 E 44th St,"Midtown
New York,
            NY",New York,NY,(212) 286-8760
140,Rait Ft,"Offices of Real Estate Agents and Brokers in Midtown, New York",450 Park Ave,"Midtown
New York,
            NY",New York,NY,(917) 322-6900
141,Jw Realty CO,"Offices of Real Estate Agents and Brokers in Financial District, New York",132 Nassau St Lbby A,"Financial District
New York,
            NY",New York,NY,(212) 227-1144
142,Hines Interests,"Real Estate Developers & Developments in Midtown, New York",425 Lexington Ave,"Midtown
New York,
            NY",New York,NY,(212) 661-1920
143,319 E 73rd St Owner Corp,"Offices of Real Estate Agents and Brokers in Upper East Side, New York",319 E 73rd St,"Upper East Side
New York,
            NY",New York,NY,(212) 452-4638
144,325 West End Ave Owners Inc,"Real Estate Agents and Managers in Upper West Side, New York",325 W End Ave,"Upper West Side
New York,
            NY",New York,NY,(212) 877-9290
145,260 Park Ave S Condo,"Offices of Real Estate Agents and Brokers in Gramercy, New York",260 Park Ave S,"Gramercy
New York,
            NY",New York,NY,(212) 780-0030
146,61 W 23rd Street Assoc,"Offices of Real Estate Agents and Brokers in Chelsea, New York",61 W 23rd St,"Chelsea
New York,
            NY",New York,NY,(212) 929-4793
147,398 3rd Av Realty CO,"Offices of Real Estate Agents and Brokers in Gramercy, New York",398 3rd Ave,"Gramercy
New York,
            NY",New York,NY,(212) 686-6664
148,350 East 77th Street Corporation,"Offices of Real Estate Agents and Brokers in Upper East Side, New York",350 E 77th St,"Upper East Side
New York,
            NY",New York,NY,(212) 744-2809
149,Stahl Midtown Properties Inc,"Offices of Real Estate Agents and Brokers in Midtown, New York",422 Madison Ave,"Midtown
New York,
            NY",New York,NY,(212) 308-9198
150,Rxr Po Owner llc,"Offices of Real Estate Agents and Brokers in Midtown, New York",450 Lexington Ave,"Midtown
New York,
            NY",New York,NY,(212) 973-4500
151,The Condor Group,"Offices of Real Estate Agents and Brokers in Gramercy, New York",12 E 33rd St FL 6,"Gramercy
New York,
            NY",New York,NY,(646) 386-9330
152,Joss Realty Partners llc,"Offices of Real Estate Agents and Brokers in Midtown, New York",520 Madison Ave FL 29,"Midtown
New York,
            NY",New York,NY,(212) 710-8912
153,Insignia Esg,"Offices of Real Estate Agents and Brokers in Chelsea, New York",111 8th Ave,"Chelsea
New York,
            NY",New York,NY,(212) 243-5060
154,The Rafal Markwat,"Offices of Real Estate Agents and Brokers in Gramercy, New York",24 E 21st St,"Gramercy
New York,
            NY",New York,NY,(212) 420-7013
155,Perlbinder Realty,"Offices of Real Estate Agents and Brokers in Midtown, New York",429 E 52nd St Lbby 2,"Midtown
New York,
            NY",New York,NY,(212) 355-4458
156,Edison Properties,"Real Estate Developers & Developments in Tribeca, New York",88 Leonard St Frnt A,"Tribeca
New York,
            NY",New York,NY,(212) 966-6710
157,Aj Clarke Real Estate,"Offices of Real Estate Agents and Brokers in Chelsea, New York",119 7th Ave,"Chelsea
New York,
            NY",New York,NY,(212) 645-5838
158,Noah Interior,"Offices of Real Estate Agents and Brokers in Garment District, New York",31 W 34th St,"Garment District
New York,
            NY",New York,NY,(212) 696-4011
159,48 St Nick llc,"Offices of Real Estate Agents and Brokers in Harlem, New York",48 Saint Nicholas Pl,"Harlem
New York,
            NY",New York,NY,(212) 690-0190
160,Mercator Corp,"Offices of Real Estate Agents and Brokers in Chelsea, New York",,"Chelsea
New York,
            NY",New York,NY,(212) 751-8066
161,25 W 39th St Realty llc,"Offices of Real Estate Agents and Brokers in Garment District, New York",25 W 39th St FL 2,"Garment District
New York,
            NY",New York,NY,(212) 302-3060
162,Rak Group llc,"Offices of Real Estate Agents and Brokers in Midtown, New York",140 W 57th St,"Midtown
New York,
            NY",New York,NY,(212) 245-1601
163,Penmark Realty,"Offices of Real Estate Agents and Brokers in Midtown, New York",110 Central Park S,"Midtown
New York,
            NY",New York,NY,(212) 246-1246
164,Conex Incorporated,"Offices of Real Estate Agents and Brokers in Midtown, New York",575 Madison Ave,"Midtown
New York,
            NY",New York,NY,(212) 605-0267
165,400 East 55th Street Assoc,"Offices of Real Estate Agents and Brokers in North Sutton Area, New York",400 E 55th St,"North Sutton Area
New York,
            NY",New York,NY,(212) 308-2119
166,606 West 113th St Owners Corp,"Offices of Real Estate Agents and Brokers in Morningside Heights, New York",606 W 113th St,"Morningside Heights
New York,
            NY",New York,NY,(212) 531-3230
167,260 W 39th Street CO,"Offices of Real Estate Agents and Brokers in Garment District, New York",260 W 39th St,"Garment District
New York,
            NY",New York,NY,(212) 354-9291
168,255 West End Ave Owners Corp,"Offices of Real Estate Agents and Brokers in Upper West Side, New York",255 W End Ave,"Upper West Side
New York,
            NY",New York,NY,(212) 712-1609
169,135 William St Assoc llc,"Real Estate Consultants & Research Services in Financial District, New York",135 William St,"Financial District
New York,
            NY",New York,NY,(212) 349-1010
170,Citicore,"Offices of Real Estate Agents and Brokers in Garment District, New York",110 W 36th St,"Garment District
New York,
            NY",New York,NY,(917) 475-1536
171,Commercial Real Estate Search Team,"Offices of Real Estate Agents and Brokers in Garment District, New York",1270 Broadway,"Garment District
New York,
            NY",New York,NY,(212) 643-9932
172,Metro Loft Mngmnt llc,"Offices of Real Estate Agents and Brokers in Financial District, New York",20 Exchange Pl Apt 1100,"Financial District
New York,
            NY",New York,NY,(212) 422-0555
173,Downtown llc,"Offices of Real Estate Agents and Brokers in Lower East Side, New York",105 Rivington St,"Lower East Side
New York,
            NY",New York,NY,(212) 254-0945
174,Metro Properties llc,"Offices of Real Estate Agents and Brokers in Yorkville, New York",1633 Lexington Ave Frnt 1,"Yorkville
New York,
            NY",New York,NY,(212) 722-0378
175,Conway Properties llc,"Offices of Real Estate Agents and Brokers in Midtown, New York",889 9th Ave FL 2,"Midtown
New York,
            NY",New York,NY,(212) 245-3400
176,East 16th Realty CO,"Offices of Real Estate Agents and Brokers in Gramercy, New York",114 E 16th St,"Gramercy
New York,
            NY",New York,NY,(212) 777-1019
177,Royal Realty Corp,"Offices of Real Estate Agents and Brokers in Midtown, New York",601 W 57th St,"Midtown
New York,
            NY",New York,NY,(212) 957-6300
178,Plymouth Management Group,"Offices of Real Estate Agents and Brokers in Midtown, New York",1776 Broadway Ste 1710,"Midtown
New York,
            NY",New York,NY,(212) 447-7000
179,Kee Yit Realty llc,"Offices of Real Estate Agents and Brokers in Lower East Side, New York",27 E Broadway,"Lower East Side
New York,
            NY",New York,NY,(212) 267-2742
180,172 Duane St Realty,"Offices of Real Estate Agents and Brokers in Tribeca, New York",172 Duane St,"Tribeca
New York,
            NY",New York,NY,(212) 431-0940
181,532 Realty Company,"Offices of Real Estate Agents and Brokers in Chelsea, New York",532 W 25th St,"Chelsea
New York,
            NY",New York,NY,(212) 645-0256
182,Cogent Realty Advisors Inc,"Offices of Real Estate Agents and Brokers in Financial District, New York",5 Broadway,"Financial District
New York,
            NY",New York,NY,(212) 509-4049
183,Pine Management Inc.,"Offices of Real Estate Agents and Brokers in Upper West Side, New York",160 W 84th St,"Upper West Side
New York,
            NY",New York,NY,(917) 441-7561
184,2147 Second Ave llc,"Offices of Real Estate Agents and Brokers in East Harlem, New York",2147 2nd Ave,"East Harlem
New York,
            NY",New York,NY,(212) 348-3028
185,Ace Usa,"Offices of Real Estate Agents and Brokers in Murray Hill, New York",425 5th Ave,"Murray Hill
New York,
            NY",New York,NY,(212) 685-5275
186,Mogull Realty,"Offices of Real Estate Agents and Brokers in North Sutton Area, New York",303 E 57th St Apt 10d,"North Sutton Area
New York,
            NY",New York,NY,(212) 286-5500
187,34th St Commercial Prop,"Offices of Real Estate Agents and Brokers in Gramercy, New York",45 E 34th St FL 2,"Gramercy
New York,
            NY",New York,NY,(212) 868-1178
188,Florencia Properties Alarm,"Offices of Real Estate Agents and Brokers in Garment District, New York",252 W 38th St,"Garment District
New York,
            NY",New York,NY,(646) 215-8002
189,Drummond & Hill Inc,"Offices of Real Estate Agents and Brokers in Midtown, New York",430 W 51st St,"Midtown
New York,
            NY",New York,NY,(212) 757-4500
190,Solow Realty Development Company,"Offices of Real Estate Agents and Brokers in Upper East Side, New York",1113 York Ave,"Upper East Side
New York,
            NY",New York,NY,(212) 355-2561
191,Warbrook Realty Lp,"Offices of Real Estate Agents and Brokers in Harlem, New York",2554 Adam Clayton Powell Jr Blvd,"Harlem
New York,
            NY",New York,NY,(212) 234-0603
192,Red Brick Properties,"Offices of Real Estate Agents and Brokers in West Village, New York",327 W 4th St,"West Village
New York,
            NY",New York,NY,(212) 727-7202
193,Monarch Realty,"Offices of Real Estate Agents and Brokers in Hamilton Heights, New York",4 Saint Nicholas Ter,"Hamilton Heights
New York,
            NY",New York,NY,(212) 663-1382
194,Banyan Realty Corp,"Real Property Lessors, Nec in Midtown, New York",228 E 56th St,"Midtown
New York,
            NY",New York,NY,(212) 935-4270
195,Boston Properties,"Offices of Real Estate Agents and Brokers in Financial District, New York",90 Church St Ste 700,"Financial District
New York,
            NY",New York,NY,(212) 240-9141
196,O & R Realty Inc,"Offices of Real Estate Agents and Brokers in Upper West Side, New York",301 W 107th St,"Upper West Side
New York,
            NY",New York,NY,(212) 865-0456
197,Sherwood Equities Inc,"Offices of Real Estate Agents and Brokers in Midtown, New York",745 5th Ave Ste 1707,"Midtown
New York,
            NY",New York,NY,(212) 980-8001
198,Soori High Line,"Offices of Real Estate Agents and Brokers in Chelsea, New York",522 W 29th St Ste 3a,"Chelsea
New York,
            NY",New York,NY,(646) 609-6180
199,145 Hudson Street Condominium,"Offices of Real Estate Agents and Brokers in Tribeca, New York",145 Hudson St Ste 301,"Tribeca
New York,
            NY",New York,NY,(212) 925-2914
200,One Christopher Realty,"Offices of Real Estate Agents and Brokers in Greenwich Village, New York",1 Christopher St,"Greenwich Village
New York,
            NY",New York,NY,(212) 242-8033
201,City Stop Realty,"Offices of Real Estate Agents and Brokers in Upper West Side, New York",107 W 69th St,"Upper West Side
New York,
            NY",New York,NY,(212) 724-7777
202,Palisades Construction,"Offices of Real Estate Agents and Brokers in Garment District, New York",241 W 37th St,"Garment District
New York,
            NY",New York,NY,(212) 704-4332
203,Edward S Gordon Company Inc Rl Est - Buildings,"Offices of Real Estate Agents and Brokers in Chelsea, New York",441 Lex Ave,"Chelsea
New York,
            NY",New York,NY,(212) 682-3929
204,Kew Management,"Offices of Real Estate Agents and Brokers in Chelsea, New York",11 W 25th St,"Chelsea
New York,
            NY",New York,NY,(212) 691-0596
205,Metropolitan Sutton Asso llc,"Offices of Real Estate Agents and Brokers in North Sutton Area, New York",330 E 56th St,"North Sutton Area
New York,
            NY",New York,NY,(212) 755-2257
206,Wall St Realty Capital,"Offices of Real Estate Agents and Brokers in Midtown, New York",555 5th Ave FL 14,"Midtown
New York,
            NY",New York,NY,(212) 732-3350
207,Apartments R Us,"Offices of Real Estate Agents and Brokers in Upper East Side, New York",331 E 92nd St,"Upper East Side
New York,
            NY",New York,NY,(212) 502-0307
208,The Link,"Offices of Real Estate Agents and Brokers in Midtown, New York",260 W 54th St,"Midtown
New York,
            NY",New York,NY,(212) 582-5465
209,Mildred llc,"Offices of Real Estate Agents and Brokers in East Village, New York",619 E 5th St,"East Village
New York,
            NY",New York,NY,(212) 466-4650
210,First New Amsterdam Corp,"Offices of Real Estate Agents and Brokers in Murray Hill, New York",110 E 42nd St Rm 1406,"Murray Hill
New York,
            NY",New York,NY,(212) 697-6940
211,Masters Coverage Corporation,"Offices of Real Estate Agents and Brokers in Murray Hill, New York",275 Madison Ave Ste 2010,"Murray Hill
New York,
            NY",New York,NY,(212) 697-2485
212,Gotham Properties Inc,"Real Property Lessors, Nec in Chelsea, New York",120 W 21st St,"Chelsea
New York,
            NY",New York,NY,(212) 691-1979
213,Brack Capital Real Estate Corp,"Offices of Real Estate Agents and Brokers in Financial District, New York",90 West St,"Financial District
New York,
            NY",New York,NY,(212) 587-9090
214,Sl Green Realty Corp,"Offices of Real Estate Agents and Brokers in Midtown, New York",625 Madison Ave Rm 3f,"Midtown
New York,
            NY",New York,NY,(212) 644-1307
215,Pine Management Inc.,"Offices of Real Estate Agents and Brokers in Upper West Side, New York",946 Columbus Ave,"Upper West Side
New York,
            NY",New York,NY,(212) 665-1821
216,Cfa Management,"Offices of Real Estate Agents and Brokers in Greenwich Village, New York",7 Great Jones St,"Greenwich Village
New York,
            NY",New York,NY,(212) 674-0590
217,Furumoto Realty Inc,"Offices of Real Estate Agents and Brokers in Murray Hill, New York",271 Madison Ave Ste 1408,"Murray Hill
New York,
            NY",New York,NY,(212) 758-8118
218,Landmark Realty Nyc llc,"Offices of Real Estate Agents and Brokers in Gramercy, New York",23 E 21st St,"Gramercy
New York,
            NY",New York,NY,(212) 234-3700
219,East River North Associates,"Offices of Real Estate Agents and Brokers in East Harlem, New York",426 E 118th St Apt 1e,"East Harlem
New York,
            NY",New York,NY,(212) 427-3130
220,St Tropez Bldg,"Offices of Real Estate Agents and Brokers in Upper East Side, New York",336 E 64th St,"Upper East Side
New York,
            NY",New York,NY,(212) 751-6345
221,Jenson Hughes New York,"Offices of Real Estate Agents and Brokers in Garment District, New York",21 Penn Plz,"Garment District
New York,
            NY",New York,NY,(212) 216-9122
222,Kassin Sabbagh Realty,"Offices of Real Estate Agents and Brokers in Garment District, New York",1385 Broadway FL 22,"Garment District
New York,
            NY",New York,NY,(212) 417-9217
223,Kue Mee Realty Corp,"Offices of Real Estate Agents and Brokers in Chinatown, New York",36 Pell St,"Chinatown
New York,
            NY",New York,NY,(212) 608-9072
224,Sierra Real Estate llc,"Offices of Real Estate Agents and Brokers in Garment District, New York",875 Avenue of the Americas,"Garment District
New York,
            NY",New York,NY,(212) 244-2103
225,17 John St Associates llc,"Offices of Real Estate Agents and Brokers in Financial District, New York",17 John St,"Financial District
New York,
            NY",New York,NY,(212) 706-2688
226,One Sherman Sq Assocs,"Offices of Real Estate Agents and Brokers in Upper West Side, New York",201 W 70th St,"Upper West Side
New York,
            NY",New York,NY,(212) 787-0223
227,Joseph A Aquino Commercial Real Estate Services llc,"Offices of Real Estate Agents and Brokers in Upper East Side, New York",200 E 66th St Apt A1107,"Upper East Side
New York,
            NY",New York,NY,(646) 912-9716
228,Lemle J & Son's - Rl Est,"Offices of Real Estate Agents and Brokers in Upper East Side, New York",315 E 84th St,"Upper East Side
New York,
            NY",New York,NY,(212) 472-2266
229,1333 Broadway Associates,"Offices of Real Estate Agents and Brokers in Garment District, New York",1359 Broadway,"Garment District
New York,
            NY",New York,NY,(212) 967-5143
230,55 Orchard Street llc,"Offices of Real Estate Agents and Brokers in Lower East Side, New York",55 Orchard St,"Lower East Side
New York,
            NY",New York,NY,(212) 226-5335
231,Realogy Corporation Corcoran Group Chelsea - Chelsea,"Offices of Real Estate Agents and Brokers in Chelsea, New York",218 W 18th St FL 6,"Chelsea
New York,
            NY",New York,NY,(646) 459-1188
232,Savills Studley,"Offices of Real Estate Agents and Brokers in Chelsea, New York",399 Park Avfloor 11,"Chelsea
New York,
            NY",New York,NY,(212) 546-9340
233,Aj Clarke Real Estate Cor,"Offices of Real Estate Agents and Brokers in Upper West Side, New York",310 W 72nd St,"Upper West Side
New York,
            NY",New York,NY,(212) 496-2340
234,Mason Real Estate,"Offices of Real Estate Agents and Brokers in Chelsea, New York",210 W 18th St,"Chelsea
New York,
            NY",New York,NY,(212) 206-1257
235,First Pioneer Properties,"Offices of Real Estate Agents and Brokers in Midtown, New York",120 E 56th St Rm 930,"Midtown
New York,
            NY",New York,NY,(212) 239-9638
236,First Metro Realty llc,"Offices of Real Estate Agents and Brokers in Little Italy, New York",240 Mulberry St Apt 15,"Little Italy
New York,
            NY",New York,NY,(646) 476-3006
237,Highgate Security & Locksmith,"Offices of Real Estate Agents and Brokers in Upper East Side, New York",182 E 95th St,"Upper East Side
New York,
            NY",New York,NY,(212) 860-5411
238,Bellmarc Reality,"Offices of Real Estate Agents and Brokers in Upper East Side, New York",1178 Lexington Ave,"Upper East Side
New York,
            NY",New York,NY,(646) 590-4005
239,Heller Realty,"Offices of Real Estate Agents and Brokers in Greenwich Village, New York",60 E 12th St,"Greenwich Village
New York,
            NY",New York,NY,(212) 888-9322
240,Blair House Associates,"Offices of Real Estate Agents and Brokers in Upper East Side, New York",250 E 63rd St Apt 511,"Upper East Side
New York,
            NY",New York,NY,(212) 371-1794
241,Lend Lease,"Offices of Real Estate Agents and Brokers in Gramercy, New York",550 1st Ave Frnt,"Gramercy
New York,
            NY",New York,NY,(212) 481-1536
242,Ventilaire Realty Corp,"Offices of Real Estate Agents and Brokers in Tribeca, New York",1 Mercer St,"Tribeca
New York,
            NY",New York,NY,(212) 226-0575
243,Chetrit Organization,"Offices of Real Estate Agents and Brokers in Garment District, New York",1384 Broadway,"Garment District
New York,
            NY",New York,NY,(212) 302-1781
244,351 E To St Apts Inc,"Offices of Real Estate Agents and Brokers in Midtown, New York",351 E 50th St,"Midtown
New York,
            NY",New York,NY,(212) 758-1980
245,Manhattan Realty llc,"Offices of Real Estate Agents and Brokers in Upper East Side, New York",213 E 66th St,"Upper East Side
New York,
            NY",New York,NY,(212) 288-1959
246,Addison Hall Owners Corp,"Offices of Real Estate Agents and Brokers in Midtown, New York",457 W 57th St,"Midtown
New York,
            NY",New York,NY,(646) 891-0140
247,William Gottlieb Mgmt CO llc,"Offices of Real Estate Agents and Brokers in West Village, New York",615 Hudson St Apt 1,"West Village
New York,
            NY",New York,NY,(646) 336-5210
248,Casa Management,"Offices of Real Estate Agents and Brokers in Financial District, New York",46 Trinity Pl Frnt 2,"Financial District
New York,
            NY",New York,NY,(212) 825-0930
249,Richman Housing Resources llc,"Offices of Real Estate Agents and Brokers in Garment District, New York",1010 Avenue of the Americas Rm 301,"Garment District
New York,
            NY",New York,NY,(212) 938-0499
250,James Bryant Homes Inc,"Offices of Real Estate Agents and Brokers in Harlem, New York",2027 Madison Ave,"Harlem
New York,
            NY",New York,NY,(212) 996-5700
251,Aion Realty llc,"Offices of Real Estate Agents and Brokers in Midtown, New York",11 E 44th St FL 1000,"Midtown
New York,
            NY",New York,NY,(212) 849-9200
252,Warren International Inc,"Offices of Real Estate Agents and Brokers in Midtown, New York",320 Park Ave,"Midtown
New York,
            NY",New York,NY,(212) 752-4118
253,Adar 2000,"Real Estate Agents and Managers in Clinton, New York",343 W 46th St,"Clinton
New York,
            NY",New York,NY,(212) 213-4485
254,42nd and 10th Associates Related Mngment Company,"Real Estate Agents and Managers in Clinton, New York",440 W 42nd St,"Clinton
New York,
            NY",New York,NY,(212) 244-2150
255,Phipps Houses Services Inc,"Offices of Real Estate Agents and Brokers in Gramercy, New York",520 2nd Ave,"Gramercy
New York,
            NY",New York,NY,(212) 679-9344
256,Pine Management Inc.,"Real Estate Agents and Managers in Upper West Side, New York",66 W 106th St,"Upper West Side
New York,
            NY",New York,NY,(212) 662-8218
257,Pine Management Inc.,"Real Estate Agents and Managers in Upper West Side, New York",141 W 80th St,"Upper West Side
New York,
            NY",New York,NY,(917) 441-2260
258,Newmark & Company Real Estate Inc,"Offices of Real Estate Agents and Brokers in Financial District, New York",10 Broadway,"Financial District
New York,
            NY",New York,NY,(646) 826-5660
259,C C Apartment Mgmt,"Offices of Real Estate Agents and Brokers in Lower East Side, New York",265 Cherry St,"Lower East Side
New York,
            NY",New York,NY,(212) 227-6939
260,Manhattan Realty llc,"Offices of Real Estate Agents and Brokers in Upper East Side, New York",225 E 66th St,"Upper East Side
New York,
            NY",New York,NY,(212) 288-2857
261,Cushman & Wakefield - Rl Est,"Offices of Real Estate Agents and Brokers in Midtown, New York",2 United Nations Plz,"Midtown
New York,
            NY",New York,NY,(212) 486-9447
262,Andover Realty,"Offices of Real Estate Agents and Brokers in Chelsea, New York",62 W 459th,"Chelsea
New York,
            NY",New York,NY,(212) 335-2222
263,Cpr Extell,"Offices of Real Estate Agents and Brokers in Upper West Side, New York",423 W 69th St,"Upper West Side
New York,
            NY",New York,NY,(212) 874-1340
264,Brookfield Financial Properties,"Offices of Real Estate Agents and Brokers in Financial District, New York",1 Liberty Plz FL Conc1,"Financial District
New York,
            NY",New York,NY,(212) 417-7000
265,132 East 61 Realty llc,"Offices of Real Estate Agents and Brokers in Upper East Side, New York",132 E 61st St,"Upper East Side
New York,
            NY",New York,NY,(212) 758-1484
266,Red Sparrow Realty Group llc,"Offices of Real Estate Agents and Brokers in Garment District, New York",249 W 34th St Rm 600,"Garment District
New York,
            NY",New York,NY,(212) 239-0800
267,First Metro Realty llc,"Offices of Real Estate Agents and Brokers in Little Italy, New York",196 Elizabeth St Apt 5,"Little Italy
New York,
            NY",New York,NY,(212) 933-1629
268,Empire State Realty Trust,"Offices of Real Estate Agents and Brokers in Garment District, New York",112 W 34th St FL 12,"Garment District
New York,
            NY",New York,NY,(917) 351-1581
269,Emmut Properties Corp,"Offices of Real Estate Agents and Brokers in Upper East Side, New York",165 E 89th St Apt A,"Upper East Side
New York,
            NY",New York,NY,(212) 289-0099
270,Urban Home Ownership Corp,"Offices of Real Estate Agents and Brokers in Harlem, New York",105 W 127th St,"Harlem
New York,
            NY",New York,NY,(212) 665-0331
271,370 Manhattan Av Realty llc,"Offices of Real Estate Agents and Brokers in Harlem, New York",370 Manhattan Ave,"Harlem
New York,
            NY",New York,NY,(212) 222-3796
272,Eugene Grant & CO,"Offices of Real Estate Agents and Brokers in Upper East Side, New York",145 E 74th St,"Upper East Side
New York,
            NY",New York,NY,(212) 744-4904
273,Freda Green & Associates Inc,"Offices of Real Estate Agents and Brokers in Upper East Side, New York",500a E 87th St,"Upper East Side
New York,
            NY",New York,NY,(212) 753-7950
274,Rifkin Noah M Cpa,"Offices of Real Estate Agents and Brokers in Midtown, New York",477 Madison Ave,"Midtown
New York,
            NY",New York,NY,(212) 572-5588
275,Stanton Wells & Stone llc,"Offices of Real Estate Agents and Brokers in Murray Hill, New York",10 E 39th St,"Murray Hill
New York,
            NY",New York,NY,(212) 213-3411
276,Eckstein Properties,"Offices of Real Estate Agents and Brokers in Financial District, New York",60 Broad St Ste 3503,"Financial District
New York,
            NY",New York,NY,(212) 668-0101
277,322 West 57th Owner llc,"Offices of Real Estate Agents and Brokers in Midtown, New York",322 W 57th St,"Midtown
New York,
            NY",New York,NY,(212) 245-2930
278,Tower 37 llc,"Offices of Real Estate Agents and Brokers in Clinton, New York",350 W 37th St,"Clinton
New York,
            NY",New York,NY,(212) 564-1777
279,Madison Properties Realty,"Offices of Real Estate Agents and Brokers in Upper East Side, New York",675 Madison Ave,"Upper East Side
New York,
            NY",New York,NY,(212) 750-5393
280,Feathered Nest,"Real Estate Agents and Managers in Upper East Side, New York",770 Lexington Ave FL 10,"Upper East Side
New York,
            NY",New York,NY,(212) 317-7800
281,1255 Company,"Offices of Real Estate Agents and Brokers in Garment District, New York",1255 Broadway,"Garment District
New York,
            NY",New York,NY,(212) 686-3695
282,Jeffries Morris Inc,"Offices of Real Estate Agents and Brokers in Financial District, New York",29 Broadway Rm 1700,"Financial District
New York,
            NY",New York,NY,(212) 425-2950
283,Tamares Real Estate Holdings Inc,"Offices of Real Estate Agents and Brokers in Midtown, New York",1500 Broadway Ste 2501,"Midtown
New York,
            NY",New York,NY,(212) 302-9444
284,Rxr Realty,"Offices of Real Estate Agents and Brokers in Midtown, New York",342 Madison Ave,"Midtown
New York,
            NY",New York,NY,(212) 599-0080
285,Orient Overseas Assoc,"Offices of Real Estate Agents and Brokers in Financial District, New York",88 Pine St Ste 2002,"Financial District
New York,
            NY",New York,NY,(212) 952-1343
286,Glenhaven Partners,"Offices of Real Estate Agents and Brokers in Garment District, New York",1040 Avenue of the Americas,"Garment District
New York,
            NY",New York,NY,(212) 398-9614
287,United Realty Associates,"Offices of Real Estate Agents and Brokers in Garment District, New York",1412 Broadway FL 22,"Garment District
New York,
            NY",New York,NY,(212) 944-7449
288,Royal Realty Corp,"Offices of Real Estate Agents and Brokers in Murray Hill, New York",201 E 42nd St Bsmt 1,"Murray Hill
New York,
            NY",New York,NY,(212) 922-1356
289,Housing Authority,"Offices of Real Estate Agents and Brokers in Lower East Side, New York",175 Eldridge St,"Lower East Side
New York,
            NY",New York,NY,(212) 254-0187
290,90 Broad Owner llc,"Offices of Real Estate Agents and Brokers in Financial District, New York",90 Broad St,"Financial District
New York,
            NY",New York,NY,(212) 742-2083
291,520 Pejane Realty,"Offices of Real Estate Agents and Brokers in East Village, New York",518 E 6th St,"East Village
New York,
            NY",New York,NY,(212) 420-9624
292,Tnv Partners,"Offices of Real Estate Agents and Brokers in Soho, New York",561 Broadway Apt 9b,"Soho
New York,
            NY",New York,NY,(212) 219-8977
293,Dearborn Capital,"Offices of Real Estate Agents and Brokers in Clinton, New York",617 11th Ave,"Clinton
New York,
            NY",New York,NY,(212) 315-9090
294,Urban Development Partners,"Offices of Real Estate Agents and Brokers in Midtown, New York",1776 Broadway Ste 606,"Midtown
New York,
            NY",New York,NY,(212) 767-0960
295,Cedar Management,"Offices of Real Estate Agents and Brokers in Lower East Side, New York",181 E Broadway,"Lower East Side
New York,
            NY",New York,NY,(212) 346-9851
296,Building Link Com llc,"Offices of Real Estate Agents and Brokers in Gramercy, New York",85 5th Ave FL 3,"Gramercy
New York,
            NY",New York,NY,(212) 256-1051
297,Kroll Inc,"Real Property Lessors, Nec in Murray Hill, New York",600 3rd Ave FL 4,"Murray Hill
New York,
            NY",New York,NY,(212) 297-9390
298,NY Real Estate llc,"Offices of Real Estate Agents and Brokers in Financial District, New York",140 West St,"Financial District
New York,
            NY",New York,NY,(212) 374-9700
299,Devon Properties Inc,"Offices of Real Estate Agents and Brokers in Garment District, New York",1 Penn Plz Ste 4015,"Garment District
New York,
            NY",New York,NY,(212) 971-9270
300,New York City Corporate Housing,"Offices of Real Estate Agents and Brokers in Gramercy, New York",85 5th Ave,"Gramercy
New York,
            NY",New York,NY,(212) 924-6666
301,Senter Sublet,"Offices of Real Estate Agents and Brokers in Upper East Side, New York",420 E 80th St,"Upper East Side
New York,
            NY",New York,NY,(212) 988-0444
302,Barton Management llc,"Offices of Real Estate Agents and Brokers in Murray Hill, New York",221 E 37th St,"Murray Hill
New York,
            NY",New York,NY,(212) 682-9693
303,Ansonia Realty llc,"Offices of Real Estate Agents and Brokers in Upper West Side, New York",2109 Broadway,"Upper West Side
New York,
            NY",New York,NY,(212) 877-9800
304,Battery Park Green Line,"Offices of Real Estate Agents and Brokers in Battery Park, New York",70 Little West St Lbby 1,"Battery Park
New York,
            NY",New York,NY,(212) 406-1000
305,G & G Broadway Terrace,"Offices of Real Estate Agents and Brokers in Greenwich Village, New York",853 Broadway Ste 1122,"Greenwich Village
New York,
            NY",New York,NY,(212) 539-9990
306,Royal Realty Corp,"Offices of Real Estate Agents and Brokers in Murray Hill, New York",655 3rd Ave Ste 2515,"Murray Hill
New York,
            NY",New York,NY,(212) 697-0666
307,Soho Aoa Owner llc,"Offices of Real Estate Agents and Brokers in Upper West Side, New York",193 Manhattan Ave,"Upper West Side
New York,
            NY",New York,NY,(212) 663-7646
308,Rose Associates,"Offices of Real Estate Agents and Brokers in Financial District, New York",21 West St,"Financial District
New York,
            NY",New York,NY,(212) 600-1588
309,5 Crosby St Inc,"Offices of Real Estate Agents and Brokers in Soho, New York",22 Howard St Ste 2a,"Soho
New York,
            NY",New York,NY,(212) 219-3291
310,895 Broadway llc,"Offices of Real Estate Agents and Brokers in Gramercy, New York",895 Broadway,"Gramercy
New York,
            NY",New York,NY,(212) 260-3101
311,Vornado Office Management,"Offices of Real Estate Agents and Brokers in Midtown, New York",1290 Avenue of the Americas Ste 3400,"Midtown
New York,
            NY",New York,NY,(212) 586-0620
312,Koll,"Offices of Real Estate Agents and Brokers in Financial District, New York",2 Rector St,"Financial District
New York,
            NY",New York,NY,(212) 571-4784
313,London Managmnt Corp,"Offices of Real Estate Agents and Brokers in Midtown, New York",340 E 51st St,"Midtown
New York,
            NY",New York,NY,(212) 753-6110
314,Sereno Partners llc,"Offices of Real Estate Agents and Brokers in Clinton, New York",452 W 36th St,"Clinton
New York,
            NY",New York,NY,(212) 695-7019
315,Assnco Reality Corp,"Offices of Real Estate Agents and Brokers in Lower East Side, New York",19 Clinton St,"Lower East Side
New York,
            NY",New York,NY,(212) 217-6117
316,Aragona Group,"Offices of Real Estate Agents and Brokers in Midtown, New York",250 W 57th St Ste 1931,"Midtown
New York,
            NY",New York,NY,(212) 245-7100
317,T-Rex Technology Center llc,"Offices of Real Estate Agents and Brokers in Midtown, New York",747 3rd Ave Rm 400,"Midtown
New York,
            NY",New York,NY,(212) 486-1222
318,East River Partners llc,"Offices of Real Estate Agents and Brokers in Gramercy, New York",915 Broadway Ste 1001,"Gramercy
New York,
            NY",New York,NY,(212) 769-8965
319,Hang Wu Realty,"Offices of Real Estate Agents and Brokers in East Harlem, New York",222 E 111th St,"East Harlem
New York,
            NY",New York,NY,(212) 410-6129
320,Cushman & Wakefield,"Real Estate Agents and Managers in Financial District, New York",125 Broad St Lbby 4,"Financial District
New York,
            NY",New York,NY,(212) 248-6960
321,Weiner Realty,"Offices of Real Estate Agents and Brokers in Hamilton Heights, New York",610 Riverside Dr,"Hamilton Heights
New York,
            NY",New York,NY,(212) 234-0723
322,Redac,"Offices of Real Estate Agents and Brokers in Murray Hill, New York",111 E 38th St,"Murray Hill
New York,
            NY",New York,NY,(646) 755-8559
323,10 E 68 Realty Corp,"Offices of Real Estate Agents and Brokers in Upper East Side, New York",10 E 68th St,"Upper East Side
New York,
            NY",New York,NY,(212) 717-2791
324,Royal Realty,"Real Estate Consultants & Research Services in Midtown, New York",1133 Avenue of the Americas,"Midtown
New York,
            NY",New York,NY,(646) 366-7999
325,Colavito William Inc,"Offices of Real Estate Agents and Brokers in Chelsea, New York",352 7th Ave Rm 211,"Chelsea
New York,
            NY",New York,NY,(212) 688-1414
326,150 E 49 St Owners Inc,"Offices of Real Estate Agents and Brokers in Midtown, New York",150 E 49th St,"Midtown
New York,
            NY",New York,NY,(212) 644-8901
327,Kamber Management,"Real Estate Management in Garment District, New York",18 W 33rd St,"Garment District
New York,
            NY",New York,NY,(212) 244-2072
328,Real Estate Mortgage,"Offices of Real Estate Agents and Brokers in Gramercy, New York",152 Madison Ave Rm 1501,"Gramercy
New York,
            NY",New York,NY,(212) 481-7707
329,Citi Urban Management Corp,"Real Estate Agents and Managers in Lower East Side, New York",152 Ludlow St,"Lower East Side
New York,
            NY",New York,NY,(212) 228-6402
330,Eleven-Seventy 5 Av Corp,"Offices of Real Estate Agents and Brokers in Yorkville, New York",1170 5th Ave,"Yorkville
New York,
            NY",New York,NY,(212) 289-7947
331,Jasper Venture Group,"Offices of Real Estate Agents and Brokers in Murray Hill, New York",275 Madison Ave FL 30,"Murray Hill
New York,
            NY",New York,NY,(212) 663-3322
332,Project 140 llc,"Offices of Real Estate Agents and Brokers in Chelsea, New York",150 W 30th St,"Chelsea
New York,
            NY",New York,NY,(212) 239-0570
333,Measurisk Com,"Offices of Real Estate Agents and Brokers in Midtown, New York",331 Madison Ave,"Midtown
New York,
            NY",New York,NY,(212) 599-6490
334,233 W 83 St Elevator,"Offices of Real Estate Agents and Brokers in Upper West Side, New York",233 W 83rd St,"Upper West Side
New York,
            NY",New York,NY,(212) 595-4022
335,Charles H Greenthal & CO,"Offices of Real Estate Agents and Brokers in Gramercy, New York",4 Park Ave FL 3,"Gramercy
New York,
            NY",New York,NY,(212) 340-9300
336,211 W 61 St Assoc,"Offices of Real Estate Agents and Brokers in Upper West Side, New York",211 W 61st St,"Upper West Side
New York,
            NY",New York,NY,(212) 247-4453
337,Sierra Realty,"Offices of Real Estate Agents and Brokers in Midtown, New York",12 E 46th St FL 6e,"Midtown
New York,
            NY",New York,NY,(212) 490-1002
338,Glenwood Renting Ofc,"Real Estate Types of Property Apartments & Residential in Upper East Side, New York",1440 York Ave,"Upper East Side
New York,
            NY",New York,NY,(212) 535-0500
339,Douglas Elliman Real Estate,"Offices of Real Estate Agents and Brokers in West Village, New York",690 Washington St,"West Village
New York,
            NY",New York,NY,(212) 352-3400
340,Chapin Group East Inc,"Offices of Real Estate Agents and Brokers in Chelsea, New York",163 W 23rd St FL 3,"Chelsea
New York,
            NY",New York,NY,(212) 751-1001
341,Bluerock Real Estate,"Offices of Real Estate Agents and Brokers in Midtown, New York",712 5th Ave Ste 903,"Midtown
New York,
            NY",New York,NY,(212) 247-6537
342,Brown Harris Stevens Inc,"Offices of Real Estate Agents and Brokers in Upper East Side, New York",23 E 74th St,"Upper East Side
New York,
            NY",New York,NY,(212) 288-7500
343,K W Realty,"Offices of Real Estate Agents and Brokers in Upper East Side, New York",348 E 62nd St,"Upper East Side
New York,
            NY",New York,NY,(212) 355-4034
344,Foundation 126th St Realty llc,"Offices of Real Estate Agents and Brokers in Harlem, New York",104 E 126th St Apt B2,"Harlem
New York,
            NY",New York,NY,(212) 427-2316
345,Rudin Management CO Inc,"Offices of Real Estate Agents and Brokers in North Sutton Area, New York",260 Lex Ave,"North Sutton Area
New York,
            NY",New York,NY,(212) 980-1515
346,Veritas Studios Inc,"Offices of Real Estate Agents and Brokers in Clinton, New York",527 W 45th St,"Clinton
New York,
            NY",New York,NY,(212) 581-2050
347,Boni Facio Cora Texidor,"Offices of Real Estate Agents and Brokers in East Harlem, New York",7 E 116th St,"East Harlem
New York,
            NY",New York,NY,(212) 860-0304
348,Twining Properties,"Offices of Real Estate Agents and Brokers in Midtown, New York",535 5th Ave FL 18,"Midtown
New York,
            NY",New York,NY,(212) 704-4002
349,West 125 Realty Corp,"Offices of Real Estate Agents and Brokers in Upper East Side, New York",1220 Lexington Ave,"Upper East Side
New York,
            NY",New York,NY,(212) 717-6680
350,12 W 32 Tenants Corp,"Offices of Real Estate Agents and Brokers in Garment District, New York",12 W 32nd St,"Garment District
New York,
            NY",New York,NY,(212) 268-6499
351,Fisher Brothers Management,"Offices of Real Estate Agents and Brokers in Murray Hill, New York",605 3rd Ave FL 21,"Murray Hill
New York,
            NY",New York,NY,(212) 867-5575
352,Rodney Corporations,"Offices of Real Estate Agents and Brokers in Midtown, New York",555 Madison Ave,"Midtown
New York,
            NY",New York,NY,(212) 230-4840
353,125 W 56 St Owners Corp,"Offices of Real Estate Agents and Brokers in Midtown, New York",125 W 56th St,"Midtown
New York,
            NY",New York,NY,(212) 757-5026
354,Weinstein Realty Group llc,"Offices of Real Estate Agents and Brokers in East Village, New York",30 Avenue B,"East Village
New York,
            NY",New York,NY,(212) 228-0498
355,King Henry Realty Inc,"Offices of Real Estate Agents and Brokers in Lower East Side, New York",173 Henry St,"Lower East Side
New York,
            NY",New York,NY,(212) 358-7125
356,Benchmark 425 Lp,"Offices of Real Estate Agents and Brokers in Gramercy, New York",200 E 30th St,"Gramercy
New York,
            NY",New York,NY,(646) 964-4271
357,Vantas,"Offices of Real Estate Agents and Brokers in Garment District, New York",1 Penn Plz,"Garment District
New York,
            NY",New York,NY,(212) 896-3800
358,133 W 22 St Condominium llc,"Offices of Real Estate Agents and Brokers in Chelsea, New York",133 W 22nd St,"Chelsea
New York,
            NY",New York,NY,(212) 462-2505
359,Milstein Properties-70,"Offices of Real Estate Agents and Brokers in Midtown, New York",335 Madison Ave,"Midtown
New York,
            NY",New York,NY,(212) 286-9005
360,Intervest Development Corp,"Offices of Real Estate Agents and Brokers in Upper West Side, New York",1841 Broadway Rm 1000,"Upper West Side
New York,
            NY",New York,NY,(212) 974-8433
361,Benenson Real Estate Svce CO,"Offices of Real Estate Agents and Brokers in Upper East Side, New York",715 Park Ave,"Upper East Side
New York,
            NY",New York,NY,(212) 988-2300
362,Home Direct llc,"Offices of Real Estate Agents and Brokers in Upper East Side, New York",236 E 81st St,"Upper East Side
New York,
            NY",New York,NY,(212) 988-2443
363,16 W 36 Assoc llc,"Offices of Real Estate Agents and Brokers in Garment District, New York",16 W 36th St Rm 801,"Garment District
New York,
            NY",New York,NY,(212) 736-0962
364,Lexington Courts,"Offices of Real Estate Agents and Brokers in East Harlem, New York",2010 Lexington Ave,"East Harlem
New York,
            NY",New York,NY,(212) 348-3675
365,Realty Advisors New World,"Offices of Real Estate Agents and Brokers in Financial District, New York",75 Broad St Ste 1010,"Financial District
New York,
            NY",New York,NY,(646) 723-4700
366,Town West Village,"Offices of Real Estate Agents and Brokers in West Village, New York",446 W 14th St,"West Village
New York,
            NY",New York,NY,(212) 604-0300
367,Vitruvius Estates llc,"Offices of Real Estate Agents and Brokers in Upper East Side, New York",150 E 72nd St,"Upper East Side
New York,
            NY",New York,NY,(212) 879-2620
368,Edgecombe Ave 291 Realty llc,"Offices of Real Estate Agents and Brokers in Harlem, New York",291 Edgecombe Ave,"Harlem
New York,
            NY",New York,NY,(212) 281-6879
369,Kraus Enterprises,"Offices of Real Estate Agents and Brokers in Harlem, New York",2401 Adam Clayton Powell Jr Blvd,"Harlem
New York,
            NY",New York,NY,(212) 234-8526
370,Tauber Properties,"Offices of Real Estate Agents and Brokers in Upper West Side, New York",44 W 85th St Apt 1b,"Upper West Side
New York,
            NY",New York,NY,(212) 721-2986
371,Ascot Properties llc,"Offices of Real Estate Agents and Brokers in East Village, New York",278 E 10th St,"East Village
New York,
            NY",New York,NY,(212) 358-7673
372,Collier Abr Inc Rlty,"Offices of Real Estate Agents and Brokers in Midtown, New York",277 Park Ave,"Midtown
New York,
            NY",New York,NY,(212) 826-1862
373,Arnold Bias Products Inc,"Offices of Real Estate Agents and Brokers in Soho, New York",593 Broadway,"Soho
New York,
            NY",New York,NY,(212) 334-3634
374,J One,"Offices of Real Estate Agents and Brokers in Midtown, New York",211 E 43rd St Rm 1305,"Midtown
New York,
            NY",New York,NY,(212) 599-3078
375,Grenadier Realty Corp,"Offices of Real Estate Agents and Brokers in Midtown, New York",345 W 50th St,"Midtown
New York,
            NY",New York,NY,(212) 245-3538
376,The Witkoff Group,"Offices of Real Estate Agents and Brokers in Midtown, New York",40 W 57th St Ste 1620,"Midtown
New York,
            NY",New York,NY,(212) 247-0120
377,New York Urban Property Management,"Offices of Real Estate Agents and Brokers in Upper West Side, New York",425 W 59th St,"Upper West Side
New York,
            NY",New York,NY,(212) 245-1870
378,Miller Cicero llc,"Offices of Real Estate Agents and Brokers in Midtown, New York",16 W 45th St,"Midtown
New York,
            NY",New York,NY,(212) 642-4300
379,New Star Realty Management of Metro NY Inc,"Offices of Real Estate Agents and Brokers in Garment District, New York",16 W 32nd St Rm 702,"Garment District
New York,
            NY",New York,NY,(212) 967-4242
380,Milstein Properties-14,"Offices of Real Estate Agents and Brokers in Upper East Side, New York",210 E 65th St,"Upper East Side
New York,
            NY",New York,NY,(212) 980-5951
381,Colgate Management llc,"Offices of Real Estate Agents and Brokers in Murray Hill, New York",485 5th Ave,"Murray Hill
New York,
            NY",New York,NY,(212) 983-7376
382,Florencia Properties NV Inc,"Offices of Real Estate Agents and Brokers in Garment District, New York",252 W 38th St,"Garment District
New York,
            NY",New York,NY,(212) 997-1101
383,Fawn Realty,"Offices of Real Estate Agents and Brokers in Harlem, New York",1370 5th Ave,"Harlem
New York,
            NY",New York,NY,(212) 254-3434
384,Capit Realty CO Inc,"Offices of Real Estate Agents and Brokers in Upper East Side, New York",442 E 75th St,"Upper East Side
New York,
            NY",New York,NY,(212) 452-3174
385,2001 Real Estate,"Offices of Real Estate Agents and Brokers in Midtown, New York",150 W 56th St,"Midtown
New York,
            NY",New York,NY,(212) 581-2001
386,Eugene M Grant Real Estate,"Offices of Real Estate Agents and Brokers in Midtown, New York",277 Park Ave,"Midtown
New York,
            NY",New York,NY,(212) 688-4700
387,World Trade Center Properties llc,"Offices of Real Estate Agents and Brokers in Financial District, New York",67 Vesey,"Financial District
New York,
            NY",New York,NY,(212) 323-2909
388,Regus,"Offices of Real Estate Agents and Brokers in Gramercy, New York",387 Park Ave S FL 5,"Gramercy
New York,
            NY",New York,NY,(646) 876-7500
389,1110 Park Avenue Condominuim Care of Wallack Management Inc,"Offices of Real Estate Agents and Brokers in Carnegie Hill, New York",1110 Park Ave,"Carnegie Hill
New York,
            NY",New York,NY,(212) 410-2905
390,Realty Eisenstein,"Offices of Real Estate Agents and Brokers in Midtown, New York",244 W 54th St,"Midtown
New York,
            NY",New York,NY,(212) 582-0643
391,Unizo Real Estate NY One llc,"Offices of Real Estate Agents and Brokers in Chelsea, New York",28 W 25th St,"Chelsea
New York,
            NY",New York,NY,(212) 414-3004
392,Input Lofts,"Offices of Real Estate Agents and Brokers in Greenwich Village, New York",58 E 11th St FL 8,"Greenwich Village
New York,
            NY",New York,NY,(212) 837-1666
393,109 W 27th St Realty llc,"Offices of Real Estate Agents and Brokers in Chelsea, New York",109 W 27th St,"Chelsea
New York,
            NY",New York,NY,(212) 675-2913
394,Alif Reality,"Offices of Real Estate Agents and Brokers in East Village, New York",206 1st Ave,"East Village
New York,
            NY",New York,NY,(646) 998-5560
395,Schottenfeld Associates,"Lessors of Real Property, Nec in Midtown, New York",1 Citi Bank Ctr FL 10,"Midtown
New York,
            NY",New York,NY,(212) 838-5820
396,Ramon Room,"Offices of Real Estate Agents and Brokers in Harlem, New York",207 E 125th St,"Harlem
New York,
            NY",New York,NY,(212) 722-4026
397,Esrt One Grand Central Place llc,"Offices of Real Estate Agents and Brokers in Murray Hill, New York",60 E 42nd St,"Murray Hill
New York,
            NY",New York,NY,(212) 661-1592
398,Mbny llc,"Offices of Real Estate Agents and Brokers in Gramercy, New York",260 5th Ave FL 9,"Gramercy
New York,
            NY",New York,NY,(212) 675-2304
399,Rudin Management CO Inc,"Offices of Real Estate Agents and Brokers in Financial District, New York",1 Whitehall St Lbby A,"Financial District
New York,
            NY",New York,NY,(212) 943-8291
400,432 Park Condominium,"Offices of Real Estate Agents and Brokers in Midtown, New York",432 Park Ave,"Midtown
New York,
            NY",New York,NY,(212) 432-5657
401,Monarch Realty,"Offices of Real Estate Agents and Brokers in Hamilton Heights, New York",2 Saint Nicholas Ter,"Hamilton Heights
New York,
            NY",New York,NY,(212) 865-1067
402,Foster House Incorporated,"Offices of Real Estate Agents and Brokers in Harlem, New York",2114 5th Ave,"Harlem
New York,
            NY",New York,NY,(212) 828-8059
403,American Rise Realty llc,"Offices of Real Estate Agents and Brokers in Gramercy, New York",347 5th Ave Rm 1402,"Gramercy
New York,
            NY",New York,NY,(347) 990-2719
404,Aj Clarke,"Offices of Real Estate Agents and Brokers in Upper West Side, New York",216 W 89th St,"Upper West Side
New York,
            NY",New York,NY,(212) 362-4624
405,Sl Green Realty Corp,"Offices of Real Estate Agents and Brokers in Murray Hill, New York",100 Park Ave Rm 2901,"Murray Hill
New York,
            NY",New York,NY,(212) 661-5175
406,Pine Management Inc.,"Real Estate Agents and Managers in Upper West Side, New York",24 W 88th St,"Upper West Side
New York,
            NY",New York,NY,(917) 441-8266
407,Y and H Realty,"Offices of Real Estate Agents and Brokers in Soho, New York",116 W Houston St,"Soho
New York,
            NY",New York,NY,(212) 477-5485
408,Broadway,"Offices of Real Estate Agents and Brokers in Financial District, New York",26 Broadway Lbby 1,"Financial District
New York,
            NY",New York,NY,(212) 344-2151
409,Winoker Realty CO Inc,"Offices of Real Estate Agents and Brokers in Garment District, New York",37 W 39th St,"Garment District
New York,
            NY",New York,NY,(212) 730-8190
410,140 Bw llc,"Offices of Real Estate Agents and Brokers in Financial District, New York",140 Broadway,"Financial District
New York,
            NY",New York,NY,(212) 943-0855
411,Aj Clarke Real Estate Company,"Offices of Real Estate Agents and Brokers in Upper East Side, New York",332 E 95th St,"Upper East Side
New York,
            NY",New York,NY,(212) 722-7302
412,Universal Building,"Offices of Real Estate Agents and Brokers in Gramercy, New York",380 2nd Ave,"Gramercy
New York,
            NY",New York,NY,(646) 314-8144
413,Elsa Properties,"Offices of Real Estate Agents and Brokers in East Village, New York",54 E 4th St,"East Village
New York,
            NY",New York,NY,(646) 654-0365
414,Margaret W Wilkes Houses,"Offices of Real Estate Agents and Brokers in Harlem, New York",220 W 141st St,"Harlem
New York,
            NY",New York,NY,(212) 283-1405
415,8 E 102st llc,"Offices of Real Estate Agents and Brokers in Yorkville, New York",1214 5th Ave,"Yorkville
New York,
            NY",New York,NY,(212) 289-6276
416,Jayson Realty,"Offices of Real Estate Agents and Brokers in Garment District, New York",450 Fashion Ave Ste 2906a,"Garment District
New York,
            NY",New York,NY,(646) 449-0804
417,Cmb Realty llc,"Offices of Real Estate Agents and Brokers in Gramercy, New York",118 E 28th St Rm 301,"Gramercy
New York,
            NY",New York,NY,(212) 683-2315
418,50 W Owners Corp,"Real Estate Agents and Managers in Upper West Side, New York",50 W 96th St,"Upper West Side
New York,
            NY",New York,NY,(212) 932-2266
419,Independence Plaza Associates,"Offices of Real Estate Agents and Brokers in Tribeca, New York",40 Harrison St,"Tribeca
New York,
            NY",New York,NY,(212) 227-3392
420,Zelnik & CO llc,"Offices of Real Estate Agents and Brokers in Midtown, New York",424 Madison Ave,"Midtown
New York,
            NY",New York,NY,(212) 223-2200
421,Fiel Organization,"Offices of Real Estate Agents and Brokers in Midtown, New York",200 W 57th St,"Midtown
New York,
            NY",New York,NY,(212) 974-1977
422,Amalithone Realty Corp,"Offices of Real Estate Agents and Brokers in Greenwich Village, New York",113 University Pl,"Greenwich Village
New York,
            NY",New York,NY,(212) 677-1427
423,218 West 40th Associates,"Offices of Real Estate Agents and Brokers in Garment District, New York",218 W 40th St,"Garment District
New York,
            NY",New York,NY,(212) 921-4468
424,Touba Real Estate Inc,"Offices of Real Estate Agents and Brokers in Garment District, New York",35 W 36th St,"Garment District
New York,
            NY",New York,NY,(212) 967-2223
425,Penmark Iii Central Park,"Offices of Real Estate Agents and Brokers in Harlem, New York",111 W 110th St,"Harlem
New York,
            NY",New York,NY,(212) 280-1707
426,Smith & Mills,"Offices of Real Estate Agents and Brokers in Tribeca, New York",71 N Moore St Frnt A,"Tribeca
New York,
            NY",New York,NY,(212) 226-2515
427,Cannon Realty Group,"Offices of Real Estate Agents and Brokers in Gramercy, New York",902 Broadway,"Gramercy
New York,
            NY",New York,NY,(212) 686-5179
428,Metropolitan Tower Office Building,"Offices of Real Estate Agents and Brokers in Midtown, New York",146 W 57th St,"Midtown
New York,
            NY",New York,NY,(212) 956-4810
429,S L Green,"Real Property Lessors, Nec in Midtown, New York",600 Lexington Ave Ste llc,"Midtown
New York,
            NY",New York,NY,(212) 838-6414
430,Ja Mil Uniform CO,"Offices of Real Estate Agents and Brokers in Lower East Side, New York",92 Orchard St Frnt 1,"Lower East Side
New York,
            NY",New York,NY,(212) 253-9479
431,597 Scribner llc,"Offices of Real Estate Agents and Brokers in Midtown, New York",3 E 48th St,"Midtown
New York,
            NY",New York,NY,(212) 750-2653
432,A & E Real Estate Inc,"Offices of Real Estate Agents and Brokers in Garment District, New York",1065 Avenue of the Americas FL 31,"Garment District
New York,
            NY",New York,NY,(212) 721-5500
433,North East Plazza,"Offices of Real Estate Agents and Brokers in Gramercy, New York",331 E 29th St,"Gramercy
New York,
            NY",New York,NY,(212) 532-1080
434,Rifkin & Lubcher Cpas,"Offices of Real Estate Agents and Brokers in Midtown, New York",477 Madison Ave,"Midtown
New York,
            NY",New York,NY,(212) 572-5588
435,Ball Baker Leake llc,"Offices of Real Estate Agents and Brokers in Murray Hill, New York",122 E 42nd St Rm 810,"Murray Hill
New York,
            NY",New York,NY,(212) 661-1630
436,Edward J Minskoff Equities Inc,"Offices of Real Estate Agents and Brokers in Midtown, New York",1325 Avenue of the Americas Ste 2300,"Midtown
New York,
            NY",New York,NY,(212) 554-0500
437,Siverstein Properties,"Offices of Real Estate Agents and Brokers in Financial District, New York",120 Broadway Ste 3663,"Financial District
New York,
            NY",New York,NY,(212) 981-1685
438,Hq,"Offices of Real Estate Agents and Brokers in Garment District, New York",1 Penn Plz,"Garment District
New York,
            NY",New York,NY,(212) 849-6900
439,Global Park Daily Inc,"Offices of Real Estate Agents and Brokers in Midtown, New York",245 Park Ave,"Midtown
New York,
            NY",New York,NY,(212) 372-8899
440,Star Construction Development Inc,"Offices of Real Estate Agents and Brokers in Lower East Side, New York",196 Stanton St,"Lower East Side
New York,
            NY",New York,NY,(212) 254-0629
441,Regus,"Offices of Real Estate Agents and Brokers in Financial District, New York",140 Broadway,"Financial District
New York,
            NY",New York,NY,(212) 858-7500
442,Related,"Offices of Real Estate Agents and Brokers in Chelsea, New York",130 W 15th St,"Chelsea
New York,
            NY",New York,NY,(646) 336-8159
443,245 W 51 St Reality llc,"Offices of Real Estate Agents and Brokers in Midtown, New York",245 W 51st St,"Midtown
New York,
            NY",New York,NY,(212) 247-8474
444,Belvedere Capital,"Offices of Real Estate Agents and Brokers in West Village, New York",421 Hudson St,"West Village
New York,
            NY",New York,NY,(212) 675-0421
445,Management Related,"Offices of Real Estate Agents and Brokers in Chelsea, New York",330 W 30th St Ofc 1,"Chelsea
New York,
            NY",New York,NY,(212) 987-6445
446,Fair Real Estate Cor,"Offices of Real Estate Agents and Brokers in Lower East Side, New York",285 Grand St,"Lower East Side
New York,
            NY",New York,NY,(212) 226-2857
447,First Avenue Owners Inc,"Offices of Real Estate Agents and Brokers in Upper East Side, New York",340 E 80th St,"Upper East Side
New York,
            NY",New York,NY,(212) 327-1603
448,Cb Richard Ellis,"Offices of Real Estate Agents and Brokers in Chelsea, New York",275 7th Ave Rm 204,"Chelsea
New York,
            NY",New York,NY,(212) 414-4972
449,132 W 125th CO,"Offices of Real Estate Agents and Brokers in Harlem, New York",136 W 125th St,"Harlem
New York,
            NY",New York,NY,(212) 222-2344
450,North Town Phase Ii,"Offices of Real Estate Agents and Brokers in New York, NY",575 Main St,"New York,
            NY",New York,NY,(212) 355-5624
451,23 East 69 llc,"Offices of Real Estate Agents and Brokers in Upper East Side, New York",23 E 69th St,"Upper East Side
New York,
            NY",New York,NY,(212) 535-3297
452,Responsive Homebuyers,"Offices of Real Estate Agents and Brokers in Upper East Side, New York",1025 5th Ave,"Upper East Side
New York,
            NY",New York,NY,(212) 744-7044
453,Ventilaire Realty Corp,"Offices of Real Estate Agents and Brokers in Tribeca, New York",1a Mercer St,"Tribeca
New York,
            NY",New York,NY,(212) 226-0575
454,Midboro Management,"Offices of Real Estate Agents and Brokers in Chelsea, New York",333 7th Ave Rm 500,"Chelsea
New York,
            NY",New York,NY,(212) 695-8747
455,Ja-Mil Uniforms,"Real Estate Agents and Managers in Lower East Side, New York",92 Orchard St Frnt 1,"Lower East Side
New York,
            NY",New York,NY,(212) 677-8190
456,K Dew Reality,"Offices of Real Estate Agents and Brokers in Lower East Side, New York",203 Rivington St,"Lower East Side
New York,
            NY",New York,NY,(212) 982-6783
457,Corp Housing Wichert,"Offices of Real Estate Agents and Brokers in Midtown, New York",250 W 50th St,"Midtown
New York,
            NY",New York,NY,(212) 706-3826
458,Rock Us Property Management llc,"Offices of Real Estate Agents and Brokers in Murray Hill, New York",100 Park Ave FL 9,"Murray Hill
New York,
            NY",New York,NY,(212) 532-1866
459,Abc Management Inc,"Offices of Real Estate Agents and Brokers in Midtown, New York",1775 Broadway,"Midtown
New York,
            NY",New York,NY,(212) 307-0206
460,Rel Estate Solutions,"Offices of Real Estate Agents and Brokers in Gramercy, New York",373 Park Ave S FL 6,"Gramercy
New York,
            NY",New York,NY,(646) 257-2622
461,92nd Realty llc,"Offices of Real Estate Agents and Brokers in Upper East Side, New York",1775 York Ave,"Upper East Side
New York,
            NY",New York,NY,(212) 860-9627
462,Prime Management Group llc,"Offices of Real Estate Agents and Brokers in Murray Hill, New York",380 Lexington Ave FL 17,"Murray Hill
New York,
            NY",New York,NY,(212) 557-7463
463,Blue Sky Properties,"Offices of Real Estate Agents and Brokers in Gramercy, New York",31 e 32nd St Rm 1201,"Gramercy
New York,
            NY",New York,NY,(212) 871-9880
464,Film Center Bldg Corp,"Offices of Real Estate Agents and Brokers in Clinton, New York",630 9th Ave,"Clinton
New York,
            NY",New York,NY,(212) 757-6995
465,Cape Advisors Inc,"Real Property Lessors, Nec in Soho, New York",483 Broadway,"Soho
New York,
            NY",New York,NY,(212) 226-1870
466,Mfa Mortgage Investments Inc,"Real Estate Agents and Managers in Midtown, New York",350 Park Ave,"Midtown
New York,
            NY",New York,NY,(212) 753-3906
467,Nycca Management,"Offices of Real Estate Agents and Brokers in Midtown, New York",825 8th Ave,"Midtown
New York,
            NY",New York,NY,(212) 586-6844
468,Goldman Morris,"Offices of Real Estate Agents and Brokers in Soho, New York",524 Broadway Rm 400,"Soho
New York,
            NY",New York,NY,(212) 925-3939
469,Rothchild North Americas Inc,"Offices of Real Estate Agents and Brokers in Midtown, New York",1251 Avenue of the Americas FL 51,"Midtown
New York,
            NY",New York,NY,(212) 354-0391
470,R c P General Inc,"Offices of Real Estate Agents and Brokers in Midtown, New York",16 e 52nd St Ste 700,"Midtown
New York,
            NY",New York,NY,(212) 755-7778
471,Tiger 21,"Real Property Lessors, Nec in Carnegie Hill, New York",6 e 87th St,"Carnegie Hill
New York,
            NY",New York,NY,(212) 360-1700
472,Isaacs,"Real Property Lessors, Nec in Financial District, New York",143 South St # 7,"Financial District
New York,
            NY",New York,NY,(212) 924-6313
473,River Terrace Assoc llc,"Offices of Real Estate Agents and Brokers in Battery Park, New York",20 River Ter,"Battery Park
New York,
            NY",New York,NY,(212) 962-5962
474,Hfz 88 Lexington Owner llc,"Offices of Real Estate Agents and Brokers in Gramercy, New York",88 Lexington Ave,"Gramercy
New York,
            NY",New York,NY,(212) 685-8890
475,Rooms in the City Inc,"Offices of Real Estate Agents and Brokers in Garment District, New York",110 W 34th St Rm 1102,"Garment District
New York,
            NY",New York,NY,(212) 643-0420
476,Herb Nass Associates,"Offices of Real Estate Agents and Brokers in Midtown, New York",420 Lexington Ave,"Midtown
New York,
            NY",New York,NY,(212) 370-0777
477,Krasnow Jesse,"Real Property Lessors, Nec in Upper West Side, New York",2109 Broadway,"Upper West Side
New York,
            NY",New York,NY,(212) 799-6671
478,State Whitehall Corp,"Offices of Real Estate Agents and Brokers in Financial District, New York",24 State St,"Financial District
New York,
            NY",New York,NY,(212) 248-8490
479,V11 90 Lex Owner llc,"Offices of Real Estate Agents and Brokers in Gramercy, New York",90 Lexington Ave,"Gramercy
New York,
            NY",New York,NY,(212) 689-2700
480,220 e 23 St Bldg,"Offices of Real Estate Agents and Brokers in Gramercy, New York",270 e 23 St,"Gramercy
New York,
            NY",New York,NY,(212) 679-5468
481,The Back Office Inc,"Offices of Real Estate Agents and Brokers in Murray Hill, New York",21 e 40th St,"Murray Hill
New York,
            NY",New York,NY,(212) 481-3434
482,Jjsl Development Inc,"Offices of Real Estate Agents and Brokers in Financial District, New York",49 Ann St,"Financial District
New York,
            NY",New York,NY,(212) 528-9250
483,Retail Reality,"Offices of Real Estate Agents and Brokers in Midtown, New York",575 Lexington Ave,"Midtown
New York,
            NY",New York,NY,(212) 527-7501
484,Sl Green Realty Corp,"Offices of Real Estate Agents and Brokers in Murray Hill, New York",41 e 42nd St,"Murray Hill
New York,
            NY",New York,NY,(212) 557-0610
485,Bit Holdings Thirty Eight Inc,"Offices of Real Estate Agents and Brokers in Midtown, New York",830 3rd Ave,"Midtown
New York,
            NY",New York,NY,(212) 753-8827
486,Trulia,"Offices of Real Estate Agents and Brokers in Midtown, New York",55 W 55th St,"Midtown
New York,
            NY",New York,NY,(212) 242-2390
487,Greeley Arcade Bldg Inc,"Offices of Real Estate Agents and Brokers in Garment District, New York",132 W 31st St,"Garment District
New York,
            NY",New York,NY,(212) 868-4523
488,Northstar Properties llc,"Real Property Lessors, Nec in Midtown, New York",150 e 58th St Ste 2001,"Midtown
New York,
            NY",New York,NY,(212) 371-5300
489,Pitt Straight Lp,"Offices of Real Estate Agents and Brokers in Lower East Side, New York",135 Pitt St,"Lower East Side
New York,
            NY",New York,NY,(212) 677-8161
490,Just Inc,"Offices of Real Estate Agents and Brokers in New York, NY",83 Wooster St Frnt 1,"New York,
            NY",New York,NY,(212) 334-3500
491,New York Urban Property Mgmt CO,"Real Property Lessors, Nec in Chelsea, New York",On 580 Columbus Pl,"Chelsea
New York,
            NY",New York,NY,(212) 845-6900
492,Galea Anthony,"Offices of Real Estate Agents and Brokers in Upper East Side, New York",108 e 86th St,"Upper East Side
New York,
            NY",New York,NY,(212) 860-0169
493,123 Layfayette llc,"Offices of Real Estate Agents and Brokers in Chinatown, New York",123 Lafayette St,"Chinatown
New York,
            NY",New York,NY,(212) 274-0906
494,159 West Realty Incorporated,"Offices of Real Estate Agents and Brokers in East Harlem, New York",1825 Madison Ave,"East Harlem
New York,
            NY",New York,NY,(212) 828-9400
495,Prd Realdty CO,"Offices of Real Estate Agents and Brokers in Garment District, New York",19 W 34th St Rm 918,"Garment District
New York,
            NY",New York,NY,(212) 695-9500
496,Dolch Howard,"Offices of Real Estate Agents and Brokers in Midtown, New York",575 5th Ave,"Midtown
New York,
            NY",New York,NY,(212) 644-2222
497,Jakandyllc,"Real Property Lessors, Nec in East Harlem, New York",153 e 116th St,"East Harlem
New York,
            NY",New York,NY,(212) 369-8582
498,Cobe Management llc,"Real Property Lessors, Nec in Murray Hill, New York",220 e 42nd St,"Murray Hill
New York,
            NY",New York,NY,(212) 338-0235
499,Jamison Financial Group,"Offices of Real Estate Agents and Brokers in Midtown, New York",1180 Avenue of the Americas,"Midtown
New York,
            NY",New York,NY,(212) 899-5550
500,Ironburgh,"Offices of Real Estate Agents and Brokers in Midtown, New York",535 5th Ave,"Midtown
New York,
            NY",New York,NY,(212) 949-0800
501,Nassimi Realty Corp,"Real Property Lessors, Nec in Chelsea, New York",370 7th Ave Ste 1600,"Chelsea
New York,
            NY",New York,NY,(212) 643-8080
502,Mall Properties,"Offices of Real Estate Agents and Brokers in Midtown, New York",600 Madison Ave Ste 14,"Midtown
New York,
            NY",New York,NY,(212) 935-1330
503,Broadway,"Offices of Real Estate Agents and Brokers in Midtown, New York",342 Madison Ave,"Midtown
New York,
            NY",New York,NY,(212) 599-0515
504,Real Estate Weekly,"Offices of Real Estate Agents and Brokers in Chelsea, New York",20 W 22nd St Ste 1411,"Chelsea
New York,
            NY",New York,NY,(212) 777-6611
505,Martin Edmond Rl Est,"Real Estate Developers & Developments in Greenwich Village, New York",16 Christopher St,"Greenwich Village
New York,
            NY",New York,NY,(212) 242-8430
506,Bristol b,"Real Property Lessors, Nec in North Sutton Area, New York",300 e 56th St,"North Sutton Area
New York,
            NY",New York,NY,(212) 753-2081
507,1414 Apf Inc,"Offices of Real Estate Agents and Brokers in Midtown, New York",1414 Avenue of the Americas,"Midtown
New York,
            NY",New York,NY,(212) 486-0105
508,Rosenblatt Samuel W Real Estate,"Offices of Real Estate Agents and Brokers in Clinton, New York",575 8th Ave Rm 2400,"Clinton
New York,
            NY",New York,NY,(212) 564-6662
509,15 West Realty Assoc Pos Word Fifteen,"Offices of Real Estate Agents and Brokers in Midtown, New York",15 W 46th St,"Midtown
New York,
            NY",New York,NY,(212) 869-3490
510,C W Capital llc,"Offices of Real Estate Agents and Brokers in Midtown, New York",400 Madison Ave,"Midtown
New York,
            NY",New York,NY,(212) 838-9899
511,Harlem Village Realty,"Offices of Real Estate Agents and Brokers in New York, NY",104 e 126th St Apt 3c,"New York,
            NY",New York,NY,(212) 427-9800
512,595 West End Ave,"Offices of Real Estate Agents and Brokers in Upper West Side, New York",595 W End Ave,"Upper West Side
New York,
            NY",New York,NY,(212) 799-8491
513,Mrmd Management,"Offices of Real Estate Agents and Brokers in Murray Hill, New York",10 e 39th St Rm 909,"Murray Hill
New York,
            NY",New York,NY,(212) 213-8136
514,Debbie Baum,"Offices of Real Estate Agents and Brokers in Upper East Side, New York",660 Madison Ave,"Upper East Side
New York,
            NY",New York,NY,(212) 821-9158
515,Boston Properties,"Offices of Real Estate Agents and Brokers in Financial District, New York",90 Church St Ste 700,"Financial District
New York,
            NY",New York,NY,(212) 748-7840
516,Depfa Bank,"Offices of Real Estate Agents and Brokers in Murray Hill, New York",622 3rd Ave Frnt a,"Murray Hill
New York,
            NY",New York,NY,(212) 983-5890
517,Regus Business Center 3865,"Offices of Real Estate Agents and Brokers in Battery Park, New York",200 Vesey St,"Battery Park
New York,
            NY",New York,NY,(646) 576-4100
518,Yomo Toro Apartments,"Offices of Real Estate Agents and Brokers in Yorkville, New York",222 e 104th St,"Yorkville
New York,
            NY",New York,NY,(212) 427-3485
519,Millennium Partners llc,"Offices of Real Estate Agents and Brokers in New York, NY",1995 Broadway FL 3,"New York,
            NY",New York,NY,(212) 712-1200
520,Truzechahn Office Properties Inc,"Offices of Real Estate Agents and Brokers in Midtown, New York",1114 Avenue of the Americas FL 22a,"Midtown
New York,
            NY",New York,NY,(646) 728-0296
521,W 25 llc,"Offices of Real Estate Agents and Brokers in Chelsea, New York",119 W 25th St,"Chelsea
New York,
            NY",New York,NY,(212) 206-6404
522,Pretium Property Mgmt llc,"Offices of Real Estate Agents and Brokers in Chelsea, New York",,"Chelsea
New York,
            NY",New York,NY,(212) 593-3600
523,Magnum Management,"Offices of Real Estate Agents and Brokers in Soho, New York",594 Broadway,"Soho
New York,
            NY",New York,NY,(212) 941-9398
524,Rosin Associates Inc,"Offices of Real Estate Agents and Brokers in Chelsea, New York",29 W 17th St FL 2,"Chelsea
New York,
            NY",New York,NY,(212) 726-0937
525,Newmark & CO Real Estate,"Offices of Real Estate Agents and Brokers in Midtown, New York",1501 Broadway,"Midtown
New York,
            NY",New York,NY,(212) 354-2500
526,Town Soho,"Offices of Real Estate Agents and Brokers in Soho, New York",337 W Broadway,"Soho
New York,
            NY",New York,NY,(646) 561-4237
527,230 e 48 St CO,"Offices of Real Estate Agents and Brokers in Midtown, New York",230 e 48th St,"Midtown
New York,
            NY",New York,NY,(212) 838-8087
528,Depfa Bank,"Offices of Real Estate Agents and Brokers in Murray Hill, New York",622 3rd Ave Frnt a,"Murray Hill
New York,
            NY",New York,NY,(212) 983-5890
529,Sklar Equities,"Offices of Real Estate Agents and Brokers in Chelsea, New York",95 Mad Ave,"Chelsea
New York,
            NY",New York,NY,(212) 532-8834
530,Kiamie Princess Marion Management Realty Corp,"Offices of Real Estate Agents and Brokers in Chelsea, New York",37 W 26th St,"Chelsea
New York,
            NY",New York,NY,(212) 576-1058
531,Capital Engineering & Technology Group,"Offices of Real Estate Agents and Brokers in Financial District, New York",140 Broadway,"Financial District
New York,
            NY",New York,NY,(212) 858-7758
532,Fatty Crab,"Offices of Real Estate Agents and Brokers in Upper West Side, New York",2170 Broadway,"Upper West Side
New York,
            NY",New York,NY,(212) 496-2722
533,The ACOCELLA GROUP LIMITED,"Offices of Real Estate Agents and Brokers in Chelsea, New York",27 W 24th St,"Chelsea
New York,
            NY",New York,NY,(212) 991-5750
534,J D M WASHINGTON STREET LLC,"Offices of Real Estate Agents and Brokers in New York, NY",90 Washington St Ste CLUBA,"New York,
            NY",New York,NY,(212) 785-7386
535,Rubberband International LLC,"Offices of Real Estate Agents and Brokers in Lower East Side, New York",133 Norfolk St,"Lower East Side
New York,
            NY",New York,NY,(212) 677-8603
536,Nyc 36th LLC,"Offices of Real Estate Agents and Brokers in Garment District, New York",29 W 36Th St,"Garment District
New York,
            NY",New York,NY,(212) 244-3636
537,SINGER & BASSUK ORGANIZATION,"Offices of Real Estate Agents and Brokers in Midtown, New York",767 3rd Ave Rm 2801,"Midtown
New York,
            NY",New York,NY,(212) 371-2277
538,Comfort George & Sons Inc,"Offices of Real Estate Agents and Brokers in New York, NY",303 W 10Th St,"New York,
            NY",New York,NY,(212) 989-8995
539,301 E 66 Street Associates,"Offices of Real Estate Agents and Brokers in Upper East Side, New York",301 E 66th St Apt 10E,"Upper East Side
New York,
            NY",New York,NY,(212) 879-5540
540,PBS Realty Advisors,"Offices of Real Estate Agents and Brokers in New York, NY",230 Park Ave Rm 539,"New York,
            NY",New York,NY,(212) 672-2000
541,Hannan Realty Inc,"Offices of Real Estate Agents and Brokers in Harlem, New York",125 W 123Rd St,"Harlem
New York,
            NY",New York,NY,(212) 222-6040
542,1300 Realty CO,"Offices of Real Estate Agents and Brokers in New York, NY",469 Fashion Ave,"New York,
            NY",New York,NY,(212) 971-0292
543,Glick Miriam,"Offices of Real Estate Agents and Brokers in Chelsea, New York",133 W 25Th St Rm 4E,"Chelsea
New York,
            NY",New York,NY,(212) 352-8678
544,Michel Madie Real Estate,"Real Estate Buyer Brokers in Upper West Side, New York",2109 Broadway,"Upper West Side
New York,
            NY",New York,NY,(212) 501-0656
545,Chakkalo Joseph,"Offices of Real Estate Agents and Brokers in East Harlem, New York",173 E 116th St,"East Harlem
New York,
            NY",New York,NY,(212) 369-1600
546,Brookfield Financial Properties,"Offices of Real Estate Agents and Brokers in Battery Park, New York",4 World Financial Ctr Fl 11,"Battery Park
New York,
            NY",New York,NY,(212) 945-0092
547,Greenfield Albert,"Offices of Real Estate Agents and Brokers in Midtown, New York",850 3rd Ave,"Midtown
New York,
            NY",New York,NY,(212) 822-2203
548,BOYCE PARTNERS INCORPORATED,"Offices of Real Estate Agents and Brokers in Midtown, New York",575 Madison Ave Ste 1006,"Midtown
New York,
            NY",New York,NY,(212) 605-0567
549,ORBIT REAL ESTATE COMPANY,"Offices of Real Estate Agents and Brokers in Gramercy, New York",114 E 32nd St Rm 1403,"Gramercy
New York,
            NY",New York,NY,(212) 683-3434
550,NEW YORK CITY & STATE PC CO.,"Offices of Real Estate Agents and Brokers in Midtown, New York",3 W 51St St,"Midtown
New York,
            NY",New York,NY,(212) 661-1417
551,Raz Realty,"Real Property Lessors, Nec in Upper West Side, New York",,"Upper West Side
New York,
            NY",New York,NY,(212) 865-2367
552,ALF NAMAN REAL ESTATE,"Offices of Real Estate Agents and Brokers in Chelsea, New York",551 W 21St St,"Chelsea
New York,
            NY",New York,NY,(212) 751-5432
553,TRITON REO MANAGEMENT,"Offices of Real Estate Agents and Brokers in Chelsea, NEW YORK",245 9TH AVE,"Chelsea
NEW YORK,
            NY",NEW YORK,NY,(646) 478-7818
554,BUBBA GUMP,"Offices of Real Estate Agents and Brokers in Midtown, NEW YORK",1501 BROADWAY FRNT 4,"Midtown
NEW YORK,
            NY",NEW YORK,NY,(212) 391-7100
555,Yee & Yee Real Estate Llc,"Offices of Real Estate Agents and Brokers in Little Italy, New York",205 Grand St,"Little Italy
New York,
            NY",New York,NY,(212) 219-3486
556,Aj Clark Real Estate Incorporated,"Offices of Real Estate Agents and Brokers in Gramercy, New York",152 E 22Nd St,"Gramercy
New York,
            NY",New York,NY,(212) 228-0647
557,ROER EDWIN M,"Real Estate Management in NEW YORK, NY",580 5th Ave Ste 306,"NEW YORK,
            NY",NEW YORK,NY,(212) 382-0005
558,Crown Acquisitions Llc,"Offices of Real Estate Agents and Brokers in New York, ny",767 5th Ave Ste 2400,"New York,
            NY",New York,NY,(212) 629-9424
559,48-50 West 119 Hdfc,"Offices of Real Estate Agents and Brokers in Harlem, New York",48 W 119Th St,"Harlem
New York,
            NY",New York,NY,(212) 996-6109
560,CHE BENJAMIN,"Offices of Real Estate Agents and Brokers in Lower East Side, New York",217 Park Row,"Lower East Side
New York,
            NY",New York,NY,(212) 374-9170
561,PATRINELY GROUP LLC DDC PC,"Offices of Real Estate Agents and Brokers in Midtown, NEW YORK",52 VANDERBILT AVE RM 1000,"Midtown
NEW YORK,
            NY",NEW YORK,NY,(212) 792-5020
562,C O FISHER BROS MGT CO,"Offices of Real Estate Agents and Brokers in Midtown, New York",299 Park Ave Fl 42,"Midtown
New York,
            NY",New York,NY,(212) 753-1018
563,NEW YORK BRITE,"Offices of Real Estate Agents and Brokers in Lower East Side, New York",509 Grand St,"Lower East Side
New York,
            NY",New York,NY,(212) 473-9838
564,HELIOS ADVISORS LLC,"Offices of Real Estate Agents and Brokers in Midtown, New York",780 3Rd Ave Rm 1002,"Midtown
New York,
            NY",New York,NY,(212) 339-7010
565,GARDNERVILLE REALTY LLC,"Offices of Real Estate Agents and Brokers in Chelsea, New York",160 W 16Th St Apt 2K,"Chelsea
New York,
            NY",New York,NY,(212) 366-4759
566,BERIK MANAGEMENT INCORPORATED,"Real Property Lessors, Nec in Gramercy, NEW YORK",381 PARK AVE S RM 1507,"Gramercy
NEW YORK,
            NY",NEW YORK,NY,(212) 679-8222
567,EQUITY OFFICE MANAGEMENT,"Real Estate Management in NEW YORK, NY",1460 Broadway Lbby 1,"NEW YORK,
            NY",NEW YORK,NY,(212) 764-8626
568,Lonview LLC,"Offices of Real Estate Agents and Brokers in Midtown, New York",126 E 56Th St,"Midtown
New York,
            NY",New York,NY,(212) 308-0414
569,Resnick Water Street Development Corp,"Commercial & Industrial Real Estate Companies in Financial District, New York",199 Water St Rm 401,"Financial District
New York,
            NY",New York,NY,(212) 514-9690
570,Chapin Group East,"Offices of Real Estate Agents and Brokers in New York, NY",163 W 23Rd St Fl 3,"New York,
            NY",New York,NY,(212) 751-1001
571,J E M B Realty,"Real Property Lessors, Nec in Garment District, New York",50 W 34Th St,"Garment District
New York,
            NY",New York,NY,(212) 912-0134
572,Silverstein Properties,"Offices of Real Estate Agents and Brokers in Clinton, New York",620 W 42,"Clinton
New York,
            NY",New York,NY,(646) 398-7190
573,Lauren Berger Collection,"Offices of Real Estate Agents and Brokers in Midtown, New York",1230 Avenue Of The Americas,"Midtown
New York,
            NY",New York,NY,(212) 586-5000
574,Urban Sanctuary Llc,"Real Property Lessors, Nec in Financial District, New York",160 Pearl St,"Financial District
New York,
            NY",New York,NY,(212) 422-1780
575,Southern Land Company,"Offices of Real Estate Agents and Brokers in New York, ny",410 Park Ave,"New York,
            NY",New York,NY,(212) 888-2683
576,ABT HOME INSPECTIONS,"Offices of Real Estate Agents and Brokers in Chelsea, New York",,"Chelsea
New York,
            NY",New York,NY,(212) 365-0795
577,Michael Young,"Offices of Real Estate Agents and Brokers in Upper West Side, New York",865 W End Ave,"Upper West Side
New York,
            NY",New York,NY,(212) 749-5922
578,Prudential,"Offices of Real Estate Agents and Brokers in New York, NY",680 5Th Ave Fl 20,"New York,
            NY",New York,NY,(212) 515-8100
579,Strategy LLC,"Offices of Real Estate Agents and Brokers in Clinton, New York",340 W 35,"Clinton
New York,
            NY",New York,NY,(646) 257-2609
580,Top Estate NY Corp,"Offices of Real Estate Agents and Brokers in Upper West Side, New York",247 Central Park W,"Upper West Side
New York,
            NY",New York,NY,(212) 362-6384
581,Management Related,"Offices of Real Estate Agents and Brokers in Upper West Side, New York",189 W 89Th St,"Upper West Side
New York,
            NY",New York,NY,(212) 706-2461
582,LEMOR REALTY CORPORATION,"Offices of Real Estate Agents and Brokers in Harlem, New York",167 W 145Th St Frnt 2,"Harlem
New York,
            NY",New York,NY,(212) 281-2714
583,Angels New York,"Offices of Real Estate Agents and Brokers in New York, NY",500 8th Ave Rm 807,"New York,
            NY",New York,NY,(212) 868-3661
584,EAST TWENTY NINTH LLC,"Offices of Real Estate Agents and Brokers in Gramercy, New York",33 E 33Rd St,"Gramercy
New York,
            NY",New York,NY,(212) 684-3214
585,WEBER FARHAT,"Offices of Real Estate Agents and Brokers in Chelsea, New York",232 W 24Th St Apt 1E,"Chelsea
New York,
            NY",New York,NY,(212) 727-0022
586,JACK PARKER CORPORATION,"Offices of Real Estate Agents and Brokers in Tribeca, New York",450 Washington St,"Tribeca
New York,
            NY",New York,NY,(212) 842-2784
587,380 Second LLC,"Offices of Real Estate Agents and Brokers in Gramercy, New York",380 2nd Ave Lbby 102,"Gramercy
New York,
            NY",New York,NY,(212) 982-1681
588,FRANC-MEN REALTY CO,"Offices of Real Estate Agents and Brokers in Chelsea, New York",688 Avenue Of The Americas,"Chelsea
New York,
            NY",New York,NY,(212) 929-9807
589,A B H Realty,"Offices of Real Estate Agents and Brokers in Midtown, New York",701 7th Ave Fl 4,"Midtown
New York,
            NY",New York,NY,(212) 840-1308
590,Quality Space Inc,"Offices of Real Estate Agents and Brokers in Murray Hill, New York",10 E 39Th St,"Murray Hill
New York,
            NY",New York,NY,(212) 213-2093
591,Prestige Management,"Offices of Real Estate Agents and Brokers in Harlem, New York",237 W 145Th St,"Harlem
New York,
            NY",New York,NY,(212) 531-7926
592,First Call Fourty,"Offices of Real Estate Agents and Brokers in New York, NY",409 W 59Th St,"New York,
            NY",New York,NY,(347) 396-5401
593,Micro Office Solutions,"Real Estate Agents and Managers in Garment District, New York",1375 Broadway Fl 3,"Garment District
New York,
            NY",New York,NY,(212) 366-5040
594,WHITEHALL REALTY,"Offices of Real Estate Agents and Brokers in Midtown, New York",250 W 57Th St,"Midtown
New York,
            NY",New York,NY,(212) 969-8369
595,GAIA PARK VIEW,"Offices of Real Estate Agents and Brokers in Midtown, New York",152 W 57Th St Ste 902,"Midtown
New York,
            NY",New York,NY,(212) 581-5700
596,FASTENBERG & BIRANT,"Offices of Real Estate Agents and Brokers in Murray Hill, New York",60 e 42nd St,"Murray Hill
New York,
            NY",New York,NY,(212) 697-0024
597,Afiaa Us Investment Inc,"Offices of Real Estate Agents and Brokers in Garment District, New York",225 W 34Th St Ste 2020,"Garment District
New York,
            NY",New York,NY,(212) 748-7684
598,126 Street Ventures Llc,"Real Property Lessors, Nec in Harlem, New York",132 E 126 St,"Harlem
New York,
            NY",New York,NY,(212) 410-6815
599,LANE LEON,"Offices of Real Estate Agents and Brokers in Chelsea, New York",,"Chelsea
New York,
            NY",New York,NY,(212) 751-5850
